cartodb_id,melbourne,postcode,id,fluoride_level,water_company,townsuburb,lat,lon
236,FALSE,3227,236,Fluoridated,Barwon Water,CONNEWARRE,-38.2640693,144.4623088
1,TRUE,3067,1,Fluoridated,City West Water,ABBOTSFORD,-37.803,145.002
2,TRUE,3040,2,Fluoridated,City West Water,ABERFELDIE,-37.762,144.901
3,FALSE,3352,3,Not fluoridated,Central Highlands Water,ADDINGTON,-37.383333,143.683333
4,FALSE,3465,4,Fluoridated,Central Highlands Water,ADELAIDE LEAD,-37.0838207,143.679125
5,FALSE,3962,5,Not fluoridated,South Gippsland Water,AGNES,-38.6577757,146.3819528
6,FALSE,3231,6,Fluoridated,Barwon Water,AIREYS INLET,-38.4507109,144.1089345
7,TRUE,3042,7,Fluoridated,City West Water,AIRPORT WEST,-37.724,144.879
8,TRUE,3021,8,Fluoridated,City West Water,ALBANVALE,-37.746,144.765
9,TRUE,3206,9,Fluoridated,South East Water,ALBERT PARK,-37.842,144.95
10,FALSE,3971,10,Not fluoridated,South Gippsland Water,ALBERTON,-38.616667,146.666667
11,TRUE,3020,11,Fluoridated,City West Water,ALBION,-37.781,144.8145
12,FALSE,3714,12,Not fluoridated,Goulburn Valley Water,ALEXANDRA,-37.1943946,145.7080742
13,FALSE,3350,13,Fluoridated,Central Highlands Water,ALFREDTON,-37.555,143.8
14,FALSE,3277,14,Fluoridated,Wannon Water,ALLANSFORD,-38.386111,142.593056
15,FALSE,3364,15,Not fluoridated,Central Highlands Water,ALLENDALE,-37.366667,143.933333
16,FALSE,3465,16,Fluoridated,Central Highlands Water,ALMA,-37.027222,143.677778
17,TRUE,3078,17,Fluoridated,Yarra Valley Water,ALPHINGTON,-37.78,145.023
18,TRUE,3018,18,Fluoridated,City West Water,ALTONA,-37.868,144.83
19,TRUE,3028,19,Fluoridated,City West Water,ALTONA MEADOWS,-37.875,144.782
20,TRUE,3025,20,Fluoridated,City West Water,ALTONA NORTH,-37.841,144.849
21,FALSE,3249,21,Fluoridated,Barwon Water,ALVIE,-38.244444,143.515556
22,FALSE,3468,22,Not fluoridated,Central Highlands Water,AMPHITHEATRE,-37.1878175,143.4682535
23,FALSE,3221,23,Fluoridated,Barwon Water,ANAKIE,-37.916667,144.25
24,FALSE,3995,24,Fluoridated,Westernport Water,ANDERSON,-38.5227147,145.4526995
25,FALSE,3230,25,Fluoridated,Barwon Water,ANGLESEA,-38.4096639,144.1825171
26,FALSE,3233,26,Not fluoridated,Barwon Water,APOLLO BAY,-38.75,143.65
27,FALSE,3377,27,Fluoridated,GWMWater,ARARAT,-37.2846464,142.9316441
28,FALSE,3995,28,Fluoridated,Westernport Water,ARCHIES CREEK,-38.548056,145.563611
29,TRUE,3022,29,Fluoridated,City West Water,ARDEER,-37.7776716,144.7988921
30,TRUE,3143,30,Fluoridated,South East Water,ARMADALE,-37.856,145.022
31,TRUE,3143,31,Fluoridated,Yarra Valley Water,ARMADALE,-37.858,145.02
32,TRUE,3099,32,Fluoridated,Yarra Valley Water,ARTHURS CREEK,-37.583333,145.2
33,TRUE,3032,33,Fluoridated,City West Water,ASCOT VALE,-37.779,144.919
34,TRUE,3147,34,Fluoridated,Yarra Valley Water,ASHBURTON,-37.866944,145.083056
35,TRUE,3147,35,Fluoridated,Yarra Valley Water,ASHWOOD,-37.867,145.103
36,TRUE,3195,36,Fluoridated,South East Water,ASPENDALE,-38.025,145.104
37,TRUE,3195,37,Fluoridated,South East Water,ASPENDALE GARDENS,-38.022778,145.118889
38,TRUE,3049,38,Fluoridated,Yarra Valley Water,ATTWOOD,-37.666,144.887
39,FALSE,3212,39,Fluoridated,Barwon Water,AVALON,-38.0568548,144.4225874
40,FALSE,3664,40,Fluoridated,Goulburn Valley Water,AVENEL,-36.9,145.233333
41,FALSE,3467,41,Not fluoridated,Central Highlands Water,AVOCA,-37.088056,143.473889
42,TRUE,3034,42,Fluoridated,City West Water,AVONDALE HEIGHTS,-37.762,144.863
43,TRUE,3782,43,Not fluoridated,Yarra Valley Water,AVONSLEIGH,-37.925,145.481944
44,FALSE,3551,44,Fluoridated,Coliban Water,AXEDALE,-36.7768707,144.5040073
45,FALSE,3340,45,Fluoridated,Western Water,BACCHUS MARSH,-37.6763789,144.4463206
46,TRUE,3777,46,Not fluoridated,Yarra Valley Water,BADGER CREEK,-37.685,145.538
47,FALSE,3875,47,Fluoridated,East Gippsland Water,BAIRNSDALE,-37.833333,147.616667
48,TRUE,3183,48,Fluoridated,South East Water,BALACLAVA,-37.873,144.993
49,FALSE,3342,49,Fluoridated,Central Highlands Water,BALLAN,-37.6146129,144.2415697
50,FALSE,3350,50,Fluoridated,Central Highlands Water,BALLARAT,-37.5621587,143.8502556
51,FALSE,3350,51,Fluoridated,Central Highlands Water,BALLARAT NORTH,-37.5397,143.8676
52,FALSE,3350,52,Fluoridated,Central Highlands Water,BALLARAT SOUTH,-37.570139,143.847761
53,FALSE,3407,53,Not fluoridated,Wannon Water,BALMORAL,-37.2516966,141.8235525
54,FALSE,3926,54,Fluoridated,South East Water,BALNARRING,-38.371,145.118
55,TRUE,3103,55,Fluoridated,Yarra Valley Water,BALWYN,-37.808889,145.078889
56,TRUE,3104,56,Fluoridated,Yarra Valley Water,BALWYN NORTH,-37.793611,145.086389
57,FALSE,3241,57,Fluoridated,Barwon Water,BAMBRA,-38.3667365,143.9448801
58,FALSE,3333,58,Fluoridated,Barwon Water,BAMGANIE,-37.914215,143.9872451
59,FALSE,3694,59,Partly fluoridated,North East Water,BANDIANA MILPO,-37.4713077,144.7851531
60,TRUE,3175,60,Fluoridated,South East Water,BANGHOLME,-38.049,145.166
61,FALSE,3331,61,Fluoridated,Barwon Water,BANNOCKBURN,-38.05,144.166667
62,TRUE,3084,62,Fluoridated,Yarra Valley Water,BANYULE,-37.7314254,145.082419
63,FALSE,3691,63,Fluoridated,North East Water,BARANDUDA,-36.1933366,146.9496305
64,FALSE,3220,64,Fluoridated,Barwon Water,BAREENA,-38.15375,144.3443056
65,FALSE,3639,65,Not fluoridated,Goulburn Valley Water,BARMAH,-36.0175,144.965278
66,FALSE,3688,66,Fluoridated,North East Water,BARNAWARTHA,-36.112928,146.655462
67,FALSE,3221,67,Fluoridated,Barwon Water,BARRABOOL,-38.1605382,144.2484344
68,FALSE,3962,68,Not fluoridated,South Gippsland Water,BARRY BEACH,-38.710362,146.387372
69,FALSE,3458,69,Not fluoridated,Central Highlands Water,BARRYS REEF,-37.4562523,144.3193914
70,FALSE,3227,70,Fluoridated,Barwon Water,BARWON HEADS,-38.2739835,144.4862111
71,FALSE,3991,71,Fluoridated,Westernport Water,BASS,-38.4659346,145.4755485
72,FALSE,3221,72,Fluoridated,Barwon Water,BATESFORD,-38.0899186,144.2847434
73,FALSE,3911,73,Fluoridated,South East Water,BAXTER,-38.196,145.157
74,TRUE,3153,74,Fluoridated,South East Water,BAYSWATER,-37.843,145.267
75,TRUE,3153,75,Fluoridated,Yarra Valley Water,BAYSWATER,-37.843,145.269
76,TRUE,3153,76,Fluoridated,Yarra Valley Water,BAYSWATER NORTH,-37.827,145.28
77,TRUE,3807,77,Fluoridated,South East Water,BEACONSFIELD,-38.049,145.371
78,TRUE,3808,78,Fluoridated,South East Water,BEACONSFIELD UPPER,-37.9982063,145.4237893
79,FALSE,3475,79,Not fluoridated,Coliban Water,BEALIBA,-36.8139252,143.535837
80,FALSE,3373,80,Not fluoridated,Central Highlands Water,BEAUFORT,-37.4228524,143.3703651
81,TRUE,3193,81,Fluoridated,South East Water,BEAUMARIS,-37.983,145.0434
82,FALSE,3251,82,Fluoridated,Barwon Water,BEEAC,-38.1772101,143.6420207
83,FALSE,3747,83,Not fluoridated,North East Water,BEECHWORTH,-36.3533015,146.6877247
84,TRUE,3160,84,Fluoridated,South East Water,BELGRAVE,-37.913067,145.3518
85,TRUE,3160,85,Fluoridated,Yarra Valley Water,BELGRAVE,-37.912067,145.3558
86,FALSE,3215,86,Fluoridated,Barwon Water,BELL PARK,-38.11,144.338
87,FALSE,3215,87,Fluoridated,Barwon Water,BELL POST HILL,-38.1,144.328
88,FALSE,3221,88,Fluoridated,Barwon Water,BELLARINE,-38.132222,144.619722
89,FALSE,3228,89,Fluoridated,Barwon Water,BELLBRAE,-38.333333,144.266667
90,FALSE,3691,90,Not fluoridated,North East Water,BELLBRIDGE,-36.098056,147.058889
91,FALSE,3228,91,Fluoridated,Barwon Water,BELLS BEACH,-38.366944,144.284722
92,FALSE,3216,92,Fluoridated,Barwon Water,BELMONT,-38.173,144.341
93,FALSE,3889,93,Not fluoridated,East Gippsland Water,BEMM RIVER,-37.7590189,148.9606122
94,FALSE,3672,94,Fluoridated,North East Water,BENALLA,-36.5462177,145.963353
95,FALSE,3550,95,Fluoridated,Coliban Water,BENDIGO,-36.7570157,144.2793906
96,FALSE,3960,96,Not fluoridated,South Gippsland Water,BENNISON,-38.6707482,146.2733747
97,TRUE,3204,97,Fluoridated,South East Water,BENTLEIGH,-37.922,145.036
98,TRUE,3165,98,Fluoridated,South East Water,BENTLEIGH EAST,-37.921,145.067
99,FALSE,3351,99,Not fluoridated,Central Highlands Water,BERRINGA,-37.7760414,143.6840179
100,TRUE,3806,100,Fluoridated,South East Water,BERWICK,-38.031,145.344
101,FALSE,3472,101,Fluoridated,Central Highlands Water,BET BET,-36.9217288,143.7531872
102,FALSE,3472,102,Fluoridated,Central Highlands Water,BETLEY,-36.9182683,143.7965958
103,FALSE,3395,103,Not fluoridated,GWMWater,BEULAH,-35.938056,142.42
104,TRUE,3753,104,Fluoridated,Yarra Valley Water,BEVERIDGE,-37.494525,145.0325382
105,FALSE,3483,105,Not fluoridated,GWMWater,BIRCHIP,-35.9833179,142.9145594
106,FALSE,3505,106,Not fluoridated,Lower Murray Water,BIRDWOODTON,-34.196389,142.058611
107,FALSE,3242,107,Not fluoridated,Barwon Water,BIRREGURRA,-38.3065561,143.7952389
108,FALSE,3918,108,Fluoridated,South East Water,BITTERN,-38.339,145.175
109,FALSE,3350,109,Fluoridated,Central Highlands Water,BLACK HILL,-37.5502577,143.875336
110,TRUE,3193,110,Fluoridated,South East Water,BLACK ROCK,-37.972,145.021
111,TRUE,3130,111,Fluoridated,Yarra Valley Water,BLACKBURN,-37.826,145.151
112,TRUE,3130,112,Fluoridated,Yarra Valley Water,BLACKBURN NORTH,-37.81,145.152
113,TRUE,3130,113,Fluoridated,Yarra Valley Water,BLACKBURN SOUTH,-37.838,145.144
114,FALSE,3458,114,Not fluoridated,Central Highlands Water,BLACKWOOD,-37.4834268,144.3026601
115,FALSE,3942,115,Fluoridated,South East Water,BLAIRGOWRIE,-38.36,144.769
116,TRUE,3980,116,Fluoridated,South East Water,BLIND BIGHT,-38.2138627,145.339912
117,FALSE,3860,117,Fluoridated,Gippsland Water,BOISDALE,-37.8840703,146.9945377
118,FALSE,3352,118,Not fluoridated,Central Highlands Water,BOLWARRAH,-37.5207531,144.0830163
119,TRUE,3196,119,Fluoridated,South East Water,BONBEACH,-38.062,145.12
120,FALSE,3691,120,Partly fluoridated,North East Water,BONEGILLA,-36.1304904,146.9865317
121,FALSE,3720,121,Not fluoridated,Goulburn Valley Water,BONNIE DOON,-37.0868493,145.8615582
122,FALSE,3352,122,Fluoridated,Central Highlands Water,BONSHAW,-37.6034859,143.8155947
123,FALSE,3870,123,Not fluoridated,Gippsland Water,BOOLARRA,-38.383333,146.266667
124,FALSE,3537,124,Not fluoridated,Coliban Water,BOORT,-36.1169559,143.7250526
125,TRUE,3155,125,Fluoridated,South East Water,BORONIA,-37.862,145.286
126,FALSE,3465,126,Fluoridated,Central Highlands Water,BOWENVALE,-36.9961863,143.698961
127,TRUE,3128,127,Fluoridated,Yarra Valley Water,BOX HILL,-37.8215,145.126
128,TRUE,3129,128,Fluoridated,Yarra Valley Water,BOX HILL NORTH,-37.807,145.12
129,TRUE,3128,129,Fluoridated,Yarra Valley Water,BOX HILL SOUTH,-37.836,145.124
130,TRUE,3195,130,Fluoridated,South East Water,BRAESIDE,-38,145.125
131,TRUE,3019,131,Fluoridated,City West Water,BRAYBROOK,-37.786,144.856
132,FALSE,3219,132,Fluoridated,Barwon Water,BREAKWATER,-38.182,144.375
133,FALSE,3227,133,Fluoridated,Barwon Water,BREAMLEA,-38.3,144.383333
134,FALSE,3860,134,Not fluoridated,Gippsland Water,BRIAGOLONG,-37.822072,147.0717292
135,TRUE,3088,135,Fluoridated,Yarra Valley Water,BRIAR HILL,-37.708,145.115
136,FALSE,3516,136,Not fluoridated,Coliban Water,BRIDGEWATER,-36.6084626,143.9572156
137,FALSE,3741,137,Not fluoridated,North East Water,BRIGHT,-36.7321521,146.9836221
138,TRUE,3186,138,Fluoridated,South East Water,BRIGHTON,-37.905,144.996
139,TRUE,3187,139,Fluoridated,South East Water,BRIGHTON EAST,-37.916,145.015
140,FALSE,3391,140,Not fluoridated,GWMWater,BRIM,-36.0337275,142.413818
141,FALSE,3658,141,Not fluoridated,Goulburn Valley Water,BROADFORD,-37.2110528,145.063089
142,TRUE,3047,142,Fluoridated,Yarra Valley Water,BROADMEADOWS,-37.685,144.925
143,TRUE,3012,143,Fluoridated,City West Water,BROOKLYN,-37.813,144.841
144,FALSE,3364,144,Not fluoridated,Central Highlands Water,BROOMFIELD,-37.3862675,143.905224
145,FALSE,3350,145,Fluoridated,Central Highlands Water,BROWN HILL,-37.5495,143.9125
146,TRUE,3056,146,Fluoridated,Yarra Valley Water,BRUNSWICK,-37.7667,144.9628
147,TRUE,3057,147,Fluoridated,Yarra Valley Water,BRUNSWICK EAST,-37.776,144.974
148,TRUE,3055,148,Fluoridated,Yarra Valley Water,BRUNSWICK WEST,-37.761,144.943
149,FALSE,3885,149,Fluoridated,East Gippsland Water,BRUTHEN,-37.7135193,147.8339017
150,FALSE,3885,150,Not fluoridated,East Gippsland Water,BUCHAN,-37.5121541,148.165845
151,FALSE,3240,151,Fluoridated,Barwon Water,BUCKLEY,-38.2444345,144.0895595
152,TRUE,3428,152,Fluoridated,Western Water,BULLA,-37.636944,144.803056
153,FALSE,3352,153,Not fluoridated,Central Highlands Water,BULLAROOK,-37.5295427,143.9988766
154,TRUE,3105,154,Fluoridated,Yarra Valley Water,BULLEEN,-37.77,145.09
155,FALSE,3821,155,Fluoridated,Gippsland Water,BULN BULN,-38.083333,145.933333
156,FALSE,3730,156,Fluoridated,North East Water,BUNDALONG,-36.02935,146.1302674
157,TRUE,3083,157,Fluoridated,Yarra Valley Water,BUNDOORA,-37.695,145.064
158,FALSE,3352,158,Fluoridated,Central Highlands Water,BUNGAREE,-37.557222,144.004444
159,FALSE,3357,159,Fluoridated,Central Highlands Water,BUNINYONG,-37.650278,143.883889
160,FALSE,3352,160,Fluoridated,Central Highlands Water,BUNKERS HILL,-37.5705876,143.7423389
161,TRUE,3815,161,Fluoridated,South East Water,BUNYIP,-38.1000508,145.7189396
162,TRUE,3795,162,Fluoridated,Yarra Valley Water,BURLEIGH,-37.8506944,145.4270833
163,TRUE,3121,163,Fluoridated,City West Water,BURNLEY,-37.8299258,145.0176466
164,TRUE,3023,164,Fluoridated,City West Water,BURNSIDE,-37.753,144.754
165,FALSE,3352,165,Not fluoridated,Central Highlands Water,BURRUMBEET,-37.5093344,143.6783343
166,TRUE,3125,166,Fluoridated,Yarra Valley Water,BURWOOD,-37.85,145.114
167,TRUE,3151,167,Fluoridated,Yarra Valley Water,BURWOOD EAST,-37.852,145.15
168,FALSE,3711,168,Not fluoridated,Goulburn Valley Water,BUXTON,-37.4363851,145.711384
169,FALSE,3505,169,Not fluoridated,Lower Murray Water,CABARITA,-34.2,142.083
170,TRUE,3023,170,Fluoridated,City West Water,CAIRNLEA,-37.757,144.784
171,FALSE,3556,171,Fluoridated,Coliban Water,CALIFORNIA GULLY,-36.7303149,144.2620417
172,TRUE,3124,172,Fluoridated,Yarra Valley Water,CAMBERWELL,-37.835,145.071
173,FALSE,3352,173,Fluoridated,Central Highlands Water,CAMBRIAN HILL,-37.6438973,143.8183092
174,TRUE,3061,174,Fluoridated,Yarra Valley Water,CAMPBELLFIELD,-37.673,144.957
175,FALSE,3451,175,Fluoridated,Coliban Water,CAMPBELLS CREEK,-37.1,144.2
176,FALSE,3260,176,Fluoridated,Wannon Water,CAMPERDOWN,-38.2355272,143.1426455
177,FALSE,3350,177,Fluoridated,Central Highlands Water,CANADIAN,-37.576,143.877
178,FALSE,3890,178,Not fluoridated,East Gippsland Water,CANN RIVER,-37.566667,149.15
179,TRUE,3977,179,Fluoridated,South East Water,CANNONS CREEK,-38.213,145.315
180,TRUE,3126,180,Fluoridated,Yarra Valley Water,CANTERBURY,-37.825,145.078
181,FALSE,3995,181,Fluoridated,South Gippsland Water,CAPE PATERSON,-38.6717,145.6198
182,FALSE,3925,182,Fluoridated,Westernport Water,CAPE WOOLAMAI,-38.526111,145.336944
183,FALSE,3274,183,Not fluoridated,Wannon Water,CARAMUT,-37.9732434,142.4698649
184,FALSE,3352,184,Fluoridated,Central Highlands Water,CARDIGAN,-37.538708,143.7457289
185,FALSE,3496,185,Not fluoridated,Lower Murray Water,CARDROSS,-34.3,142.15
186,FALSE,3464,186,Fluoridated,Central Highlands Water,CARISBROOK,-37.048056,143.816944
187,TRUE,3053,187,Fluoridated,City West Water,CARLTON,-37.8001,144.9671
188,TRUE,3054,188,Fluoridated,City West Water,CARLTON NORTH,-37.7890434,144.9694441
189,TRUE,3163,189,Fluoridated,South East Water,CARNEGIE,-37.888,145.062
190,FALSE,3351,190,Fluoridated,Central Highlands Water,CARNGHAM,-37.5769958,143.5639019
191,TRUE,3023,191,Fluoridated,City West Water,CAROLINE SPRINGS,-37.745,144.74
192,TRUE,3197,192,Fluoridated,South East Water,CARRUM,-38.076,145.122
193,FALSE,3201,193,Fluoridated,South East Water,CARRUM DOWNS,-38.096,145.178
194,FALSE,3311,194,Not fluoridated,Wannon Water,CASTERTON,-37.583333,141.4
195,FALSE,3450,195,Fluoridated,Coliban Water,CASTLEMAINE,-37.058136,144.2185006
196,TRUE,3162,196,Fluoridated,South East Water,CAULFIELD,-37.884,145.0266
197,TRUE,3145,197,Fluoridated,Yarra Valley Water,CAULFIELD EAST,-37.876,145.044
198,TRUE,3161,198,Fluoridated,South East Water,CAULFIELD NORTH,-37.873,145.025
199,TRUE,3162,199,Fluoridated,South East Water,CAULFIELD SOUTH,-37.891,145.026
200,FALSE,3314,200,Not fluoridated,Wannon Water,CAVENDISH,-37.516667,142.033333
201,FALSE,3221,201,Fluoridated,Barwon Water,CERES,-38.1590503,144.2640892
202,TRUE,3148,202,Fluoridated,Yarra Valley Water,CHADSTONE,-37.883,145.093
203,FALSE,3525,203,Not fluoridated,GWMWater,CHARLTON,-36.2678624,143.3510486
204,TRUE,3196,204,Fluoridated,South East Water,CHELSEA,-38.051111,145.121944
205,TRUE,3196,205,Fluoridated,South East Water,CHELSEA HEIGHTS,-38.047,145.137
206,TRUE,3192,206,Fluoridated,South East Water,CHELTENHAM,-37.967,145.068
207,FALSE,3451,207,Fluoridated,Coliban Water,CHEWTON,-37.083333,144.266667
208,FALSE,3683,208,Fluoridated,North East Water,CHILTERN,-36.15,146.6
209,FALSE,3351,209,Not fluoridated,Central Highlands Water,CHIPSTOW,-37.616101,143.504808
210,TRUE,3116,210,Fluoridated,Yarra Valley Water,CHIRNSIDE PARK,-37.754,145.327
211,TRUE,3777,211,Not fluoridated,Yarra Valley Water,CHUM CREEK,-37.606,145.488
212,FALSE,3842,212,Fluoridated,Gippsland Water,CHURCHILL,-38.3163383,146.4232518
213,FALSE,3352,213,Not fluoridated,Central Highlands Water,CLARENDON,-37.701411,143.9813542
214,TRUE,3169,214,Fluoridated,South East Water,CLARINDA,-37.941,145.103
215,FALSE,3352,215,Not fluoridated,Central Highlands Water,CLARKES HILL,-37.4968556,143.9813542
216,TRUE,3168,216,Fluoridated,Yarra Valley Water,CLAYTON,-37.915,145.13
217,TRUE,3169,217,Fluoridated,South East Water,CLAYTON SOUTH,-37.947,145.123
218,TRUE,3782,218,Not fluoridated,Yarra Valley Water,CLEMATIS,-37.9322058,145.4222435
219,TRUE,3068,219,Fluoridated,City West Water,CLIFTON HILL,-37.789,144.999
220,FALSE,3222,220,Fluoridated,Barwon Water,CLIFTON SPRINGS,-38.1515545,144.5738608
221,FALSE,3370,221,Not fluoridated,Central Highlands Water,CLUNES,-37.296,143.786
222,TRUE,3978,222,Fluoridated,South East Water,CLYDE,-38.132,145.327
223,FALSE,3266,223,Not fluoridated,Wannon Water,COBDEN,-38.320519,143.0828766
224,FALSE,3643,224,Fluoridated,Goulburn Valley Water,COBRAM,-35.966667,145.65
225,TRUE,3058,225,Fluoridated,City West Water,COBURG,-37.741534,144.96272
226,TRUE,3058,226,Fluoridated,Yarra Valley Water,COBURG,-37.7438,144.9645
227,TRUE,3058,227,Fluoridated,Yarra Valley Water,COBURG NORTH,-37.726,144.96
228,TRUE,3781,228,Not fluoridated,Yarra Valley Water,COCKATOO,-37.935,145.492
229,FALSE,3568,229,Fluoridated,Coliban Water,COHUNA,-35.8149095,144.2095074
230,FALSE,3250,230,Fluoridated,Barwon Water,COLAC,-38.3410186,143.5854622
231,FALSE,3559,231,Not fluoridated,Goulburn Valley Water,COLBINABBIN,-36.6083452,144.7724465
232,TRUE,3770,232,Partly fluoridated,Yarra Valley Water,COLDSTREAM,-37.734,145.383
233,FALSE,3315,233,Not fluoridated,Wannon Water,COLERAINE,-37.6,141.7
234,FALSE,3066,234,Fluoridated,City West Water,COLLINGWOOD,-37.8019,144.98815
235,FALSE,3633,235,Fluoridated,Goulburn Valley Water,CONGUPNA,-36.3,145.433333
237,TRUE,3048,237,Fluoridated,Yarra Valley Water,COOLAROO,-37.6562333,144.9364069
238,FALSE,3860,238,Not fluoridated,Gippsland Water,COONGULLA,-37.8863058,146.7854467
239,FALSE,3249,239,Fluoridated,Barwon Water,CORAGULAC,-38.263392,143.5365131
240,FALSE,3352,240,Fluoridated,Central Highlands Water,CORINDHAP,-37.8704673,143.749458
241,FALSE,3984,241,Fluoridated,Westernport Water,CORINELLA,-38.4242265,145.463777
242,FALSE,3214,242,Fluoridated,Barwon Water,CORIO,-38.074,144.359
243,FALSE,3984,243,Fluoridated,Westernport Water,CORONET BAY,-38.433333,145.45
244,FALSE,3254,244,Fluoridated,Barwon Water,COROROOKE,-38.2962142,143.5256956
245,FALSE,3707,245,Not fluoridated,North East Water,CORRYONG,-36.1966523,147.9023498
246,TRUE,3099,246,Fluoridated,Yarra Valley Water,COTTLES BRIDGE,-37.622,145.219
247,FALSE,3922,247,Fluoridated,Westernport Water,COWES,-38.451111,145.241944
248,FALSE,3857,248,Not fluoridated,Gippsland Water,COWWARR,-38.0126207,146.6591011
249,FALSE,3465,249,Fluoridated,Central Highlands Water,CRAIGIE,-37.0952972,143.7820105
250,TRUE,3064,250,Fluoridated,Yarra Valley Water,CRAIGIEBURN,-37.594,144.934
251,TRUE,3977,251,Fluoridated,South East Water,CRANBOURNE,-38.105,145.279
252,TRUE,3977,252,Fluoridated,South East Water,CRANBOURNE NORTH,-38.07,145.291
253,TRUE,3977,253,Fluoridated,South East Water,CRANBOURNE SOUTH,-38.1581064,145.2535448
254,TRUE,3121,254,Fluoridated,City West Water,CREMORNE,-37.83,144.993
255,FALSE,3322,255,Fluoridated,Barwon Water,CRESSY,-38.0325875,143.6376138
256,FALSE,3363,256,Fluoridated,Central Highlands Water,CRESWICK,-37.4241222,143.8912368
257,FALSE,3919,257,Fluoridated,South East Water,CRIB POINT,-38.363,145.202
258,TRUE,3070,258,Fluoridated,Yarra Valley Water,CROXTON,-37.76417,144.997268
259,TRUE,3136,259,Fluoridated,Yarra Valley Water,CROYDON,-37.796,145.281
260,TRUE,3136,260,Fluoridated,Yarra Valley Water,CROYDON HILLS,-37.775,145.266
261,TRUE,3136,261,Fluoridated,Yarra Valley Water,CROYDON NORTH,-37.767,145.287
262,TRUE,3136,262,Fluoridated,Yarra Valley Water,CROYDON SOUTH,-37.814,145.271
263,FALSE,3705,263,Not fluoridated,North East Water,CUDGEWA,-36.1548052,147.7920514
264,FALSE,3222,264,Fluoridated,Barwon Water,CURLEWIS,-38.1767277,144.5327632
265,FALSE,3465,265,Fluoridated,Central Highlands Water,DAISY HILL,-37.1132303,143.7261205
266,TRUE,3047,266,Fluoridated,Yarra Valley Water,DALLAS,-37.668,144.94
267,FALSE,3992,267,Fluoridated,Westernport Water,DALYSTON,-38.5648841,145.5342757
268,TRUE,3175,268,Fluoridated,South East Water,DANDENONG,-37.981,145.215
615,FALSE,3825,615,Fluoridated,Gippsland Water,MOE,-38.172222,146.267778
269,TRUE,3175,269,Fluoridated,South East Water,DANDENONG SOUTH,-38.031,145.215
270,FALSE,3340,270,Fluoridated,Western Water,DARLEY,-37.654722,144.437222
271,FALSE,3822,271,Fluoridated,Gippsland Water,DARNUM,-38.183333,146.016667
272,FALSE,3304,272,Not fluoridated,Wannon Water,DARTMOOR,-37.9143894,141.2730001
273,FALSE,3701,273,Not fluoridated,North East Water,DARTMOUTH,-36.7665868,147.695272
274,FALSE,3460,274,Not fluoridated,Central Highlands Water,DAYLESFORD,-37.35,144.15
275,FALSE,3217,275,Fluoridated,Barwon Water,DEAKIN UNIVERSITY,-38.1989,144.2977
276,FALSE,3363,276,Not fluoridated,Central Highlands Water,DEAN,-37.4488929,143.9956369
277,TRUE,3103,277,Fluoridated,Yarra Valley Water,DEEPDENE,-37.813056,145.067778
278,TRUE,3023,278,Fluoridated,City West Water,DEER PARK,-37.763,144.767
279,FALSE,3356,279,Fluoridated,Central Highlands Water,DELACOMBE,-37.589,143.814
280,TRUE,3037,280,Fluoridated,City West Water,DELAHEY,-37.719,144.777
281,FALSE,3352,281,Fluoridated,Central Highlands Water,DEREEL,-37.8247291,143.7562257
282,TRUE,3030,282,Fluoridated,City West Water,DERRIMUT,-37.7854322,144.7661531
283,FALSE,3325,283,Fluoridated,Wannon Water,DERRINALLUM,-37.948441,143.2160297
284,FALSE,3726,284,Fluoridated,North East Water,DEVENISH,-36.3464064,145.9045405
285,TRUE,3977,285,Fluoridated,South East Water,DEVON MEADOWS,-38.162,145.303
286,FALSE,3971,286,Not fluoridated,South Gippsland Water,DEVON NORTH,-38.5188799,146.6436701
287,TRUE,3089,287,Fluoridated,Yarra Valley Water,DIAMOND CREEK,-37.671,145.155
288,TRUE,3427,288,Fluoridated,Western Water,DIGGERS REST,-37.628056,144.721111
289,FALSE,3414,289,Not fluoridated,GWMWater,DIMBOOLA,-36.453243,142.0290523
290,TRUE,3172,290,Fluoridated,South East Water,DINGLEY VILLAGE,-37.981,145.128
291,FALSE,3898,291,Not fluoridated,East Gippsland Water,DINNER PLAIN,-37.0238277,147.2413889
292,TRUE,3008,292,Fluoridated,City West Water,DOCKLANDS,-37.817,144.946
293,TRUE,3139,293,Fluoridated,Yarra Valley Water,DON VALLEY,-37.761389,145.584444
294,FALSE,3480,294,Not fluoridated,GWMWater,DONALD,-36.3694068,142.9819619
295,TRUE,3108,295,Fluoridated,Yarra Valley Water,DONCASTER,-37.787,145.124
296,TRUE,3109,296,Fluoridated,Yarra Valley Water,DONCASTER EAST,-37.783,145.166
297,TRUE,3111,297,Fluoridated,Yarra Valley Water,DONVALE,-37.797,145.175
298,FALSE,3646,298,Not fluoridated,Goulburn Valley Water,DOOKIE,-36.3117549,145.7104485
299,TRUE,3754,299,Fluoridated,Yarra Valley Water,DOREEN,-37.605,145.146
300,TRUE,3177,300,Fluoridated,South East Water,DOVETON,-37.988,145.239
301,FALSE,3936,301,Fluoridated,South East Water,DROMANA,-38.338,144.965
302,FALSE,3818,302,Fluoridated,Gippsland Water,DROUIN,-38.1353835,145.8487441
303,FALSE,3818,303,Fluoridated,Gippsland Water,DROUIN WEST,-38.0866074,145.8523685
304,FALSE,3215,304,Fluoridated,Barwon Water,DRUMCONDRA,-38.132,144.354
305,FALSE,3222,305,Fluoridated,Barwon Water,DRYSDALE,-38.1809329,144.5985292
306,FALSE,3956,306,Not fluoridated,South Gippsland Water,DUMBALK,-38.533889,146.094444
307,FALSE,3294,307,Fluoridated,Wannon Water,DUNKELD,-37.65,142.35
308,FALSE,3472,308,Not fluoridated,Coliban Water,DUNOLLY,-36.85,143.733333
309,FALSE,3352,309,Not fluoridated,Central Highlands Water,DURHAM LEAD,-37.6882095,143.8780526
310,FALSE,3878,310,Fluoridated,East Gippsland Water,EAGLE POINT,-37.8992112,147.6775564
311,FALSE,3556,311,Fluoridated,Coliban Water,EAGLEHAWK,-36.716667,144.25
312,TRUE,3084,312,Fluoridated,Yarra Valley Water,EAGLEMONT,-37.763,145.066
313,FALSE,3875,313,Fluoridated,East Gippsland Water,EAST BAIRNSDALE,-37.8361684,147.6495717
314,FALSE,3219,314,Fluoridated,Barwon Water,EAST GEELONG,-38.162,144.3802
315,TRUE,3002,315,Fluoridated,City West Water,EAST MELBOURNE,-37.813,144.985
316,FALSE,3875,316,Fluoridated,East Gippsland Water,EASTWOOD,-37.8134091,147.6297389
317,FALSE,3691,317,Fluoridated,North East Water,EBDEN,-36.1415988,147.0136321
318,FALSE,3564,318,Fluoridated,Coliban Water,ECHUCA,-36.1459548,144.7448007
319,FALSE,3318,319,Not fluoridated,GWMWater,EDENHOPE,-37.0307143,141.2834751
320,TRUE,3196,320,Fluoridated,South East Water,EDITHVALE,-38.037,145.113
321,FALSE,3713,321,Not fluoridated,Goulburn Valley Water,EILDON,-37.2342952,145.897646
322,FALSE,3250,322,Fluoridated,Barwon Water,ELLIMINYT,-38.3733285,143.5743866
323,FALSE,3558,323,Not fluoridated,Coliban Water,ELMORE,-36.4967919,144.6087925
324,FALSE,3448,324,Fluoridated,Coliban Water,ELPHINSTONE,-37.1,144.333333
325,TRUE,3185,325,Fluoridated,South East Water,ELSTERNWICK,-37.887,145.006
326,TRUE,3095,326,Fluoridated,Yarra Valley Water,ELTHAM,-37.715,145.158
327,TRUE,3095,327,Fluoridated,Yarra Valley Water,ELTHAM NORTH,-37.698,145.144
328,TRUE,3184,328,Fluoridated,South East Water,ELWOOD,-37.884,144.986
329,TRUE,3782,329,Not fluoridated,Yarra Valley Water,EMERALD,-37.933056,145.436944
330,TRUE,3802,330,Fluoridated,South East Water,ENDEAVOUR HILLS,-37.969,145.2558
331,FALSE,3352,331,Fluoridated,Central Highlands Water,ENFIELD,-37.7255403,143.803634
332,TRUE,3076,332,Fluoridated,Yarra Valley Water,EPPING,-37.638,145.01
333,FALSE,3551,333,Fluoridated,Coliban Water,EPSOM,-36.7,144.316667
334,FALSE,3825,334,Not fluoridated,Gippsland Water,ERICA,-37.9756695,146.3768277
335,TRUE,3040,335,Fluoridated,City West Water,ESSENDON,-37.749,144.912
336,TRUE,3041,336,Fluoridated,City West Water,ESSENDON NORTH,-37.7383196,144.8992556
337,TRUE,3040,337,Fluoridated,City West Water,ESSENDON WEST,-37.755,144.883
338,FALSE,3350,338,Fluoridated,Central Highlands Water,EUREKA,-37.5648,143.8822
339,FALSE,3666,339,Not fluoridated,Goulburn Valley Water,EUROA,-36.75,145.566667
340,TRUE,3078,340,Fluoridated,Yarra Valley Water,FAIRFIELD,-37.792,145.011
341,FALSE,3231,341,Not fluoridated,Barwon Water,FAIRHAVEN,-38.456111,144.085833
342,TRUE,3060,342,Fluoridated,Yarra Valley Water,FAWKNER,-37.707,144.968
343,TRUE,3156,343,Fluoridated,South East Water,FERNTREE GULLY,-37.8862,145.2821
344,TRUE,3786,344,Fluoridated,Yarra Valley Water,FERNY CREEK,-37.878,145.335
345,FALSE,3959,345,Not fluoridated,South Gippsland Water,FISH CREEK,-38.7043519,146.087727
346,TRUE,3065,346,Fluoridated,City West Water,FITZROY,-37.801111,144.978889
347,TRUE,3068,347,Fluoridated,City West Water,FITZROY NORTH,-37.784,144.986
348,FALSE,3465,348,Fluoridated,Central Highlands Water,FLAGSTAFF,-37.05,143.775
349,FALSE,3360,349,Fluoridated,Central Highlands Water,FLAGSTAFF RIDGE HILL,-37.67209,143.5194058
350,TRUE,3031,350,Fluoridated,City West Water,FLEMINGTON,-37.785,144.928
351,FALSE,3929,351,Fluoridated,South East Water,FLINDERS,-38.474,145.022
352,TRUE,3011,352,Fluoridated,City West Water,FOOTSCRAY,-37.798,144.899
353,TRUE,3131,353,Fluoridated,Yarra Valley Water,FOREST HILL,-37.842,145.172
354,FALSE,3236,354,Not fluoridated,Barwon Water,FORREST,-38.516667,143.716667
355,FALSE,3960,355,Not fluoridated,South Gippsland Water,FOSTER,-38.65,146.2
356,FALSE,3199,356,Fluoridated,South East Water,FRANKSTON,-38.158,145.135
357,FALSE,3200,357,Fluoridated,South East Water,FRANKSTON NORTH,-38.123,145.153
358,FALSE,3216,358,Fluoridated,Barwon Water,FRESHWATER CREEK,-38.270278,144.248056
359,FALSE,3451,359,Fluoridated,Coliban Water,FRYERSTOWN,-37.1432659,144.2549754
360,FALSE,3221,360,Fluoridated,Barwon Water,FYANSFORD,-38.1347924,144.2906169
361,TRUE,3185,361,Fluoridated,South East Water,GARDENVALE,-37.899,145.007
362,TRUE,3814,362,Fluoridated,South East Water,GARFIELD,-38.0999051,145.6800684
363,FALSE,3220,363,Fluoridated,Barwon Water,GEELONG,-38.1499181,144.3617186
364,FALSE,3218,364,Fluoridated,Barwon Water,GEELONG WEST,-38.133333,144.35
365,FALSE,3239,365,Not fluoridated,Barwon Water,GELLIBRAND,-38.5271333,143.5453035
366,TRUE,3783,366,Not fluoridated,Yarra Valley Water,GEMBROOK,-37.95,145.541
367,FALSE,3891,367,Not fluoridated,East Gippsland Water,GENOA,-37.4510835,149.696092
368,FALSE,3240,368,Fluoridated,Barwon Water,GHERANG,-38.303611,144.090556
369,FALSE,3331,369,Fluoridated,Barwon Water,GHERINGHAP,-38.0719517,144.2299712
370,FALSE,3624,370,Not fluoridated,Goulburn Valley Water,GIRGARRE,-36.4064638,144.9618719
371,FALSE,3437,371,Fluoridated,Western Water,GISBORNE,-37.49,144.588889
372,TRUE,3043,372,Fluoridated,Yarra Valley Water,GLADSTONE PARK,-37.688,144.892
373,FALSE,3990,373,Fluoridated,Westernport Water,GLEN FORBES,-38.449327,145.5326969
374,TRUE,3163,374,Fluoridated,South East Water,GLEN HUNTLY,-37.8927437,145.0410692
375,FALSE,3146,375,Fluoridated,Yarra Valley Water,GLEN IRIS,-37.856,145.059
376,TRUE,3150,376,Fluoridated,Yarra Valley Water,GLEN WAVERLEY,-37.8856521,145.165179
377,FALSE,3854,377,Not fluoridated,Gippsland Water,GLENGARRY,-38.1352566,146.5637493
378,FALSE,3858,378,Not fluoridated,Gippsland Water,GLENMAGGIE,-37.9163753,146.7461215
379,FALSE,3340,379,Not fluoridated,Central Highlands Water,GLENMORE,-37.7128105,144.3122204
380,FALSE,3265,380,Not fluoridated,Wannon Water,GLENORMISTON,-38.149904,142.964872
381,FALSE,3675,381,Fluoridated,North East Water,GLENROWAN,-36.4468841,146.2321651
382,TRUE,3046,382,Fluoridated,Yarra Valley Water,GLENROY,-37.706,144.924
383,FALSE,3293,383,Not fluoridated,Wannon Water,GLENTHOMPSON,-37.6707686,142.5338611
384,FALSE,3350,384,Fluoridated,Central Highlands Water,GOLDEN POINT,-37.574,143.868
385,FALSE,3555,385,Fluoridated,Coliban Water,GOLDEN SQUARE,-36.766667,144.25
386,FALSE,3725,386,Not fluoridated,North East Water,GOORAMBAT,-36.4391452,145.9393385
387,FALSE,3557,387,Not fluoridated,Coliban Water,GOORNONG,-36.6432507,144.4930553
388,FALSE,3345,388,Fluoridated,Central Highlands Water,GORDON,-37.583333,144.1
389,TRUE,3043,389,Fluoridated,Yarra Valley Water,GOWANBRAE,-37.702,144.899
390,FALSE,3875,390,Fluoridated,East Gippsland Water,GRANITE ROCK,-37.7573323,147.6722422
391,FALSE,3984,391,Fluoridated,Westernport Water,GRANTVILLE,-38.4,145.533333
392,FALSE,3377,392,Not fluoridated,GWMWater,GREAT WESTERN,-37.15,142.85
393,TRUE,3088,393,Fluoridated,Yarra Valley Water,GREENSBOROUGH,-37.686,145.117
394,TRUE,3059,394,Fluoridated,Yarra Valley Water,GREENVALE,-37.633,144.883
395,TRUE,3104,395,Fluoridated,Yarra Valley Water,GREYTHORN,-37.7965604,145.0984985
396,FALSE,3216,396,Fluoridated,Barwon Water,GROVEDALE,-38.2,144.35
397,TRUE,3770,397,Fluoridated,Yarra Valley Water,GRUYERE,-37.734,145.45
398,FALSE,3451,398,Fluoridated,Coliban Water,GUILDFORD,-37.1496144,144.1754128
399,FALSE,3566,399,Not fluoridated,Coliban Water,GUNBOWER,-35.957222,144.370556
400,TRUE,3807,400,Fluoridated,South East Water,GUYS HILL,-38.017,145.386
401,FALSE,3351,401,Fluoridated,Central Highlands Water,HADDON,-37.588333,143.699444
402,TRUE,3046,402,Fluoridated,Yarra Valley Water,HADFIELD,-37.71,144.95
403,TRUE,3803,403,Fluoridated,South East Water,HALLAM,-38.009,145.268
404,FALSE,3381,404,Not fluoridated,GWMWater,HALLS GAP,-37.1467982,142.5235245
405,FALSE,3300,405,Fluoridated,Wannon Water,HAMILTON,-37.7455702,142.0178976
406,FALSE,3215,406,Fluoridated,Barwon Water,HAMLYN HEIGHTS,-38.12,144.32
407,TRUE,3188,407,Fluoridated,South East Water,HAMPTON,-37.937,145.009
408,TRUE,3188,408,Fluoridated,South East Water,HAMPTON EAST,-37.939,145.031
409,TRUE,3976,409,Fluoridated,South East Water,HAMPTON PARK,-38.029,145.26
410,FALSE,3453,410,Fluoridated,Coliban Water,HARCOURT,-37,144.25
411,TRUE,3806,411,Fluoridated,South East Water,HARKAWAY,-37.999,145.344
412,FALSE,3741,412,Not fluoridated,North East Water,HARRIETVILLE,-36.8886692,147.0650375
413,FALSE,3915,413,Fluoridated,South East Water,HASTINGS,-38.306,145.189
414,FALSE,3465,414,Fluoridated,Central Highlands Water,HAVELOCK,-36.9604672,143.7720261
415,TRUE,3142,415,Fluoridated,Yarra Valley Water,HAWKSBURN,-37.8447415,145.0022549
416,TRUE,3122,416,Fluoridated,Yarra Valley Water,HAWTHORN,-37.826,145.034
417,TRUE,3123,417,Fluoridated,Yarra Valley Water,HAWTHORN EAST,-37.831,145.05
418,FALSE,3840,418,Fluoridated,Gippsland Water,HAZELWOOD NORTH,-38.265189,146.4851099
419,TRUE,3777,419,Not fluoridated,Yarra Valley Water,HEALESVILLE,-37.656111,145.513889
420,FALSE,3523,420,Not fluoridated,Coliban Water,HEATHCOTE,-36.916667,144.7
421,FALSE,3758,421,Fluoridated,Goulburn Valley Water,HEATHCOTE JUNCTION,-37.3853254,145.0438252
422,TRUE,3132,422,Fluoridated,Yarra Valley Water,HEATHERDALE,-37.8189559,145.2128826
423,TRUE,3202,423,Fluoridated,South East Water,HEATHERTON,-37.95,145.085
424,TRUE,3135,424,Fluoridated,Yarra Valley Water,HEATHMONT,-37.83,145.242
425,FALSE,3967,425,Not fluoridated,South Gippsland Water,HEDLEY,-38.6436473,146.4936982
426,TRUE,3084,426,Fluoridated,Yarra Valley Water,HEIDELBERG,-37.752,145.07
427,TRUE,3081,427,Fluoridated,Yarra Valley Water,HEIDELBERG HEIGHTS,-37.742,145.053
428,TRUE,3081,428,Fluoridated,Yarra Valley Water,HEIDELBERG RGH,-37.755002,145.047983
429,TRUE,3081,429,Fluoridated,Yarra Valley Water,HEIDELBERG WEST,-37.744,145.047
430,FALSE,3461,430,Not fluoridated,Central Highlands Water,HEPBURN,-37.3118233,144.125661
431,FALSE,3218,431,Fluoridated,Barwon Water,HERNE HILL,-38.1329,144.3305
432,FALSE,3858,432,Not fluoridated,Gippsland Water,HEYFIELD,-37.9827396,146.7911606
433,FALSE,3304,433,Not fluoridated,Wannon Water,HEYWOOD,-38.133333,141.616667
434,FALSE,3756,434,Fluoridated,Yarra Valley Water,HIDDEN VALLEY,-37.3952162,144.9903551
435,TRUE,3190,435,Fluoridated,South East Water,HIGHETT,-37.95,145.05
436,TRUE,3032,436,Fluoridated,City West Water,HIGHPOINT CITY,-37.4713077,144.7851531
437,FALSE,3216,437,Fluoridated,Barwon Water,HIGHTON,-38.171,144.318
438,FALSE,3351,438,Fluoridated,Central Highlands Water,HILLCREST,-37.6155727,143.6339403
439,TRUE,3037,439,Fluoridated,City West Water,HILLSIDE,-37.687,144.743
440,FALSE,3920,440,Fluoridated,South East Water,HMAS CERBERUS,-38.3813207,145.1983285
441,FALSE,3396,441,Not fluoridated,GWMWater,HOPETOUN,-35.7243809,142.3583441
1018,FALSE,3241,1018,Fluoridated,Barwon Water,WINCHELSEA,-38.2437824,143.9943269
442,TRUE,3029,442,Fluoridated,City West Water,HOPPERS CROSSING,-37.869,144.693
443,FALSE,3400,443,Fluoridated,GWMWater,HORSHAM,-36.7188618,142.1962316
444,TRUE,3166,444,Fluoridated,South East Water,HUGHESDALE,-37.895,145.084
445,TRUE,3166,445,Fluoridated,Yarra Valley Water,HUGHESDALE,-37.893,145.086
446,TRUE,3166,446,Fluoridated,South East Water,HUNTINGDALE,-37.9084344,145.1086176
447,TRUE,3166,447,Fluoridated,Yarra Valley Water,HUNTINGDALE,-37.9064344,145.1086176
448,FALSE,3551,448,Fluoridated,Coliban Water,HUNTLY,-36.664933,144.3289536
449,TRUE,3099,449,Fluoridated,Yarra Valley Water,HURSTBRIDGE,-37.638889,145.195
450,FALSE,3223,450,Fluoridated,Barwon Water,INDENTED HEAD,-38.138056,144.71
451,FALSE,3517,451,Not fluoridated,Coliban Water,INGLEWOOD,-36.576389,143.868889
452,FALSE,3321,452,Fluoridated,Barwon Water,INVERLEIGH,-38.1028946,144.0398618
453,FALSE,3996,453,Fluoridated,South Gippsland Water,INVERLOCH,-38.6334,145.7278
454,FALSE,3352,454,Fluoridated,Central Highlands Water,INVERMAY,-37.502394,143.8780526
455,FALSE,3249,455,Fluoridated,Barwon Water,IRREWARRA,-38.3167164,143.6444066
456,FALSE,3498,456,Fluoridated,Lower Murray Water,IRYMPLE,-34.233333,142.166667
457,TRUE,3079,457,Fluoridated,Yarra Valley Water,IVANHOE,-37.7703,145.0457
458,TRUE,3079,458,Fluoridated,Yarra Valley Water,IVANHOE EAST,-37.772,145.066
459,TRUE,3047,459,Fluoridated,Yarra Valley Water,JACANA,-37.6889943,144.9088858
460,FALSE,3228,460,Fluoridated,Barwon Water,JAN JUC,-38.333333,144.3
461,FALSE,3902,461,Fluoridated,East Gippsland Water,JOHNSONVILLE,-37.8177196,147.8044654
462,FALSE,3869,462,Fluoridated,Gippsland Water,JUMBUK,-38.3747997,146.4051598
463,FALSE,3401,463,Not fluoridated,GWMWater,JUNG,-36.6288597,142.3363938
464,FALSE,3551,464,Fluoridated,Coliban Water,JUNORTOUN,-36.7778248,144.379516
465,FALSE,3909,465,Fluoridated,East Gippsland Water,KALIMNA,-37.866369,147.9673981
466,TRUE,3791,466,Partly fluoridated,Yarra Valley Water,KALLISTA,-37.883,145.372
467,TRUE,3766,467,Fluoridated,Yarra Valley Water,KALORAMA,-37.818,145.366
468,FALSE,3555,468,Fluoridated,Coliban Water,KANGAROO FLAT,-36.783333,144.233333
469,TRUE,3097,469,Fluoridated,Yarra Valley Water,KANGAROO GROUND,-37.686,145.216
470,FALSE,3649,470,Not fluoridated,Goulburn Valley Water,KATAMATITE,-36.0527793,145.6835389
471,FALSE,3634,471,Not fluoridated,Goulburn Valley Water,KATANDRA WEST,-36.2260077,145.5690835
472,FALSE,3640,472,Not fluoridated,Goulburn Valley Water,KATUNGA,-36.016667,145.466667
473,TRUE,3021,473,Fluoridated,City West Water,KEALBA,-37.739,144.828
474,TRUE,3036,474,Fluoridated,City West Water,KEILOR,-37.712,144.831
475,TRUE,3038,475,Fluoridated,City West Water,KEILOR DOWNS,-37.722,144.803
476,TRUE,3033,476,Fluoridated,City West Water,KEILOR EAST,-37.741667,144.863056
477,TRUE,3036,477,Fluoridated,City West Water,KEILOR NORTH,-37.68,144.784
478,TRUE,3042,478,Fluoridated,City West Water,KEILOR PARK,-37.719,144.851
479,FALSE,3550,479,Fluoridated,Coliban Water,KENNINGTON,-36.768937,144.305733
480,TRUE,3031,480,Fluoridated,City West Water,KENSINGTON,-37.791,144.931
481,TRUE,3073,481,Fluoridated,Yarra Valley Water,KEON PARK,-37.6946161,145.0118242
482,FALSE,3579,482,Fluoridated,Lower Murray Water,KERANG,-35.7409643,143.9261931
483,TRUE,3101,483,Fluoridated,Yarra Valley Water,KEW,-37.805278,145.035833
484,TRUE,3102,484,Fluoridated,Yarra Valley Water,KEW EAST,-37.796944,145.056944
485,TRUE,3173,485,Fluoridated,South East Water,KEYSBOROUGH,-37.989,145.172
486,FALSE,3691,486,Fluoridated,North East Water,KIEWA,-36.2732078,147.019899
487,FALSE,3995,487,Fluoridated,Westernport Water,KILCUNDA,-38.5498,145.4761
488,FALSE,3312,488,Fluoridated,North East Water,KILLARA,-36.138988,146.951957
489,FALSE,3764,489,Fluoridated,Goulburn Valley Water,KILMORE,-37.3016566,144.9497232
490,FALSE,3764,490,Fluoridated,Goulburn Valley Water,KILMORE EAST,-37.2930364,144.9811479
491,TRUE,3137,491,Fluoridated,Yarra Valley Water,KILSYTH,-37.802,145.316
492,TRUE,3137,492,Fluoridated,Yarra Valley Water,KILSYTH SOUTH,-37.8296238,145.3115843
493,TRUE,3021,493,Fluoridated,City West Water,KINGS PARK,-37.734,144.772
494,TRUE,3083,494,Fluoridated,Yarra Valley Water,KINGSBURY,-37.715,145.034
495,FALSE,3364,495,Not fluoridated,Central Highlands Water,KINGSTON,-37.366667,143.95
496,TRUE,3012,496,Fluoridated,City West Water,KINGSVILLE,-37.809,144.878
497,TRUE,3180,497,Fluoridated,South East Water,KNOXFIELD,-37.891,145.248
498,TRUE,3981,498,Fluoridated,South East Water,KOO WEE RUP,-38.198,145.489
499,FALSE,3580,499,Not fluoridated,Lower Murray Water,KOONDROOK,-35.633333,144.116667
500,FALSE,3954,500,Not fluoridated,South Gippsland Water,KOONWARRA,-38.547222,145.946944
501,FALSE,3501,501,Not fluoridated,Lower Murray Water,KOORLONG,-34.2479402,142.0423986
502,TRUE,3144,502,Fluoridated,Yarra Valley Water,KOOYONG,-37.841944,145.035
503,FALSE,3282,503,Fluoridated,Wannon Water,KOROIT,-38.2960425,142.3553505
504,FALSE,3520,504,Not fluoridated,Coliban Water,KORONG VALE,-36.3557749,143.695912
505,FALSE,3950,505,Fluoridated,South Gippsland Water,KORUMBURRA,-38.4378364,145.8150854
506,TRUE,3337,506,Fluoridated,Western Water,KURUNJANG,-37.672,144.585
507,FALSE,3620,507,Fluoridated,Goulburn Valley Water,KYABRAM,-36.3139409,145.0468064
508,FALSE,3444,508,Fluoridated,Coliban Water,KYNETON,-37.233333,144.45
509,FALSE,3463,509,Not fluoridated,Coliban Water,LAANECOORIE,-36.8270468,143.8796572
510,FALSE,3584,510,Fluoridated,Lower Murray Water,LAKE BOGA,-35.4334504,143.6211297
511,FALSE,3909,511,Fluoridated,East Gippsland Water,LAKE BUNGA,-37.8616357,148.0384692
512,FALSE,3355,512,Fluoridated,Central Highlands Water,LAKE GARDENS,-37.546,143.82
513,FALSE,3887,513,Fluoridated,East Gippsland Water,LAKE TYERS,-37.8396304,148.1238154
514,FALSE,3909,514,Not fluoridated,East Gippsland Water,LAKE TYERS BEACH,-37.8606804,148.0669106
515,FALSE,3909,515,Fluoridated,East Gippsland Water,LAKES ENTRANCE,-37.8511185,147.995821
516,FALSE,3352,516,Fluoridated,Central Highlands Water,LAL LAL,-37.6801093,144.0099222
517,FALSE,3542,517,Not fluoridated,GWMWater,LALBERT,-35.6732662,143.3740654
518,TRUE,3075,518,Fluoridated,Yarra Valley Water,LALOR,-37.667,145.02
519,FALSE,3435,519,Not fluoridated,Western Water,LANCEFIELD,-37.2769748,144.728396
520,FALSE,3384,520,Not fluoridated,Central Highlands Water,LANDSBOROUGH,-37.0325896,143.1561318
521,FALSE,3984,521,Fluoridated,South East Water,LANG LANG,-38.266667,145.566667
522,FALSE,3910,522,Fluoridated,South East Water,LANGWARRIN,-38.151,145.181
523,FALSE,3212,523,Fluoridated,Barwon Water,LARA,-38.016667,144.416667
524,TRUE,3139,524,Partly fluoridated,Yarra Valley Water,LAUNCHING PLACE,-37.774,145.588
525,TRUE,3028,525,Fluoridated,City West Water,LAVERTON,-37.858,144.773
526,TRUE,3026,526,Fluoridated,City West Water,LAVERTON NORTH,-37.83,144.785
527,FALSE,3352,527,Not fluoridated,Central Highlands Water,LEARMONTH,-37.4221835,143.7120932
528,FALSE,3352,528,Not fluoridated,Central Highlands Water,LEIGH CREEK,-37.5622875,143.9623147
529,FALSE,3567,529,Not fluoridated,Coliban Water,LEITCHVILLE,-35.9065246,144.3016359
530,FALSE,3953,530,Not fluoridated,South Gippsland Water,LEONGATHA,-38.4740327,145.9436663
531,FALSE,3224,531,Fluoridated,Barwon Water,LEOPOLD,-38.1944438,144.4670924
532,FALSE,3332,532,Fluoridated,Barwon Water,LETHBRIDGE,-37.966667,144.133333
533,FALSE,3352,533,Not fluoridated,Central Highlands Water,LEXTON,-37.2792586,143.5156517
534,TRUE,3140,534,Fluoridated,Yarra Valley Water,LILYDALE,-37.758,145.35
535,FALSE,3865,535,Fluoridated,East Gippsland Water,LINDENOW,-37.8,147.483333
536,FALSE,3875,536,Fluoridated,East Gippsland Water,LINDENOW SOUTH,-37.8261072,147.4388572
537,FALSE,3360,537,Fluoridated,Central Highlands Water,LINTON,-37.683333,143.566667
538,FALSE,3324,538,Fluoridated,Wannon Water,LISMORE,-37.9552943,143.3494538
539,FALSE,3350,539,Fluoridated,Central Highlands Water,LITTLE BENDIGO,-37.543149,143.894678
540,TRUE,3211,540,Fluoridated,City West Water,LITTLE RIVER,-37.9672041,144.5083099
541,FALSE,3945,541,Not fluoridated,South Gippsland Water,LOCH,-38.3738374,145.6877037
542,FALSE,3563,542,Not fluoridated,Coliban Water,LOCKINGTON,-36.2804685,144.5320784
543,FALSE,3340,543,Fluoridated,Western Water,LONG FOREST ROAD,-37.6552358,144.506845
544,FALSE,3550,544,Fluoridated,Coliban Water,LONG GULLY,-36.7425683,144.256582
545,FALSE,3816,545,Fluoridated,South East Water,LONGWARRY,-38.1110794,145.7663288
546,FALSE,3665,546,Not fluoridated,Goulburn Valley Water,LONGWOOD,-36.8488197,145.4080574
547,FALSE,3232,547,Not fluoridated,Barwon Water,LORNE,-38.5366556,143.9715484
548,FALSE,3221,548,Fluoridated,Barwon Water,LOVELY BANKS,-38.066667,144.333333
549,TRUE,3093,549,Fluoridated,Yarra Valley Water,LOWER PLENTY,-37.734,145.116
550,FALSE,3875,550,Fluoridated,East Gippsland Water,LUCKNOW,-37.8115088,147.6779106
551,TRUE,3975,551,Fluoridated,South East Water,LYNBROOK,-38.05,145.252
552,TRUE,3975,552,Fluoridated,South East Water,LYNDHURST,-38.0704681,145.2424941
553,TRUE,3156,553,Fluoridated,South East Water,LYSTERFIELD,-37.93,145.301
554,FALSE,3286,554,Not fluoridated,Wannon Water,MACARTHUR,-38.027044,142.0046427
555,TRUE,3782,555,Not fluoridated,Yarra Valley Water,MACCLESFIELD,-37.883,145.477
556,FALSE,3440,556,Fluoridated,Western Water,MACEDON,-37.4281226,144.5556723
557,TRUE,3085,557,Fluoridated,Yarra Valley Water,MACLEOD,-37.714,145.066
558,FALSE,3860,558,Fluoridated,Gippsland Water,MAFFRA,-37.9619053,146.9886238
559,FALSE,3352,559,Fluoridated,Central Highlands Water,MAGPIE,-37.6275666,143.8508908
560,FALSE,3551,560,Fluoridated,Coliban Water,MAIDEN GULLY,-36.743,144.209
561,TRUE,3012,561,Fluoridated,City West Water,MAIDSTONE,-37.783,144.878
562,FALSE,3465,562,Fluoridated,Central Highlands Water,MAJORCA,-37.1283598,143.79049
563,FALSE,3463,563,Fluoridated,Coliban Water,MALDON,-36.9979354,144.0703067
564,FALSE,3892,564,Not fluoridated,East Gippsland Water,MALLACOOTA,-37.55,149.75
565,FALSE,3446,565,Fluoridated,Coliban Water,MALMSBURY,-37.188889,144.385
566,TRUE,3144,566,Fluoridated,South East Water,MALVERN,-37.858,145.035
567,TRUE,3144,567,Fluoridated,Yarra Valley Water,MALVERN,-37.856,145.037
568,TRUE,3145,568,Fluoridated,Yarra Valley Water,MALVERN EAST,-37.878,145.06
569,FALSE,3546,569,Not fluoridated,GWMWater,MANANGATANG,-35.044592,142.8825176
570,FALSE,3663,570,Fluoridated,Goulburn Valley Water,MANGALORE,-36.8908218,145.164489
571,FALSE,3218,571,Fluoridated,Barwon Water,MANIFOLD HEIGHTS,-38.14,144.33
572,FALSE,3222,572,Fluoridated,Barwon Water,MANNERIM,-38.216667,144.583333
573,FALSE,3722,573,Not fluoridated,Goulburn Valley Water,MANSFIELD,-37.0625288,146.0821493
574,FALSE,3222,574,Fluoridated,Barwon Water,MARCUS HILL,-38.233333,144.566667
575,FALSE,3233,575,Not fluoridated,Barwon Water,MARENGO,-38.776141,143.6583166
576,TRUE,3032,576,Fluoridated,City West Water,MARIBYRNONG,-37.77,144.893
577,FALSE,3888,577,Not fluoridated,East Gippsland Water,MARLO,-37.796,148.531
578,FALSE,3515,578,Fluoridated,Coliban Water,MARONG,-36.733333,144.133333
579,FALSE,3216,579,Fluoridated,Barwon Water,MARSHALL,-38.2024817,144.3603806
580,FALSE,3465,580,Fluoridated,Central Highlands Water,MARYBOROUGH,-37.0473301,143.7446068
581,FALSE,3779,581,Not fluoridated,Goulburn Valley Water,MARYSVILLE,-37.5083939,145.7474205
582,FALSE,3331,582,Fluoridated,Barwon Water,MAUDE,-37.9242637,144.1685956
583,FALSE,3938,583,Fluoridated,South East Water,MCCRAE,-38.351,144.922
584,TRUE,3204,584,Fluoridated,South East Water,MCKINNON,-37.91,145.039
585,TRUE,3048,585,Fluoridated,Yarra Valley Water,MEADOW HEIGHTS,-37.65,144.922
586,FALSE,3956,586,Not fluoridated,South Gippsland Water,MEENIYAN,-38.5835106,146.013851
587,TRUE,3000,587,Fluoridated,City West Water,MELBOURNE,-37.8136276,144.9630576
588,TRUE,3004,588,Fluoridated,City West Water,MELBOURNE,-37.838525,144.975608
589,TRUE,3045,589,Fluoridated,City West Water,MELBOURNE AIRPORT,-37.6875,144.840556
590,TRUE,3337,590,Fluoridated,Western Water,MELTON,-37.677,144.612
591,TRUE,3338,591,Fluoridated,Western Water,MELTON SOUTH,-37.703056,144.571944
592,TRUE,3194,592,Fluoridated,South East Water,MENTONE,-37.985,145.068889
593,TRUE,3159,593,Partly fluoridated,Yarra Valley Water,MENZIES CREEK,-37.931,145.398
594,FALSE,3505,594,Fluoridated,Lower Murray Water,MERBEIN,-34.1613339,142.0475029
595,FALSE,3333,595,Fluoridated,Barwon Water,MEREDITH,-37.8667098,144.1052241
596,FALSE,3310,596,Not fluoridated,Wannon Water,MERINO,-37.7117283,141.5318089
597,TRUE,3754,597,Fluoridated,Yarra Valley Water,MERNDA,-37.5892795,145.103791
598,FALSE,3916,598,Fluoridated,South East Water,MERRICKS,-38.39,145.089
599,FALSE,3926,599,Fluoridated,South East Water,MERRICKS BEACH,-38.398,145.106
600,FALSE,3618,600,Fluoridated,Goulburn Valley Water,MERRIGUM,-36.3787995,145.1286167
601,FALSE,3723,601,Not fluoridated,Goulburn Valley Water,MERRIJIG,-37.0831709,146.2745848
602,FALSE,3904,602,Fluoridated,East Gippsland Water,METUNG,-37.883333,147.85
603,TRUE,3064,603,Fluoridated,Yarra Valley Water,MICKLEHAM,-37.562,144.874
604,TRUE,3206,604,Fluoridated,South East Water,MIDDLE PARK,-37.851944,144.963056
605,FALSE,3500,605,Fluoridated,Lower Murray Water,MILDURA,-34.2080167,142.1245535
606,TRUE,3082,606,Fluoridated,Yarra Valley Water,MILL PARK,-37.671,145.062
607,FALSE,3799,607,Not fluoridated,Yarra Valley Water,MILLGROVE,-37.7448481,145.6507039
608,FALSE,3352,608,Fluoridated,Central Highlands Water,MINERS REST,-37.4717252,143.7911684
609,FALSE,3392,609,Not fluoridated,GWMWater,MINYIP,-36.4577308,142.5942441
610,FALSE,3871,610,Not fluoridated,Gippsland Water,MIRBOO NORTH,-38.3950602,146.1498411
611,FALSE,3722,611,Not fluoridated,Mount Buller and Mount Stirling ARMB,MIRIMBAH,-37.1103367,146.396505
612,TRUE,3132,612,Fluoridated,Yarra Valley Water,MITCHAM,-37.818,145.197
613,FALSE,3355,613,Fluoridated,Central Highlands Water,MITCHELL PARK,-37.5089391,143.7747951
614,FALSE,3240,614,Fluoridated,Barwon Water,MODEWARRE,-38.266111,144.121944
616,TRUE,3793,616,Partly fluoridated,Yarra Valley Water,MONBULK,-37.878,145.411
617,FALSE,3984,617,Fluoridated,South East Water,MONOMEITH,-38.2155589,145.5378941
618,TRUE,3127,618,Fluoridated,Yarra Valley Water,MONT ALBERT,-37.816111,145.11
619,TRUE,3129,619,Fluoridated,Yarra Valley Water,MONT ALBERT NORTH,-37.808056,145.113889
620,TRUE,3094,620,Fluoridated,Yarra Valley Water,MONTMORENCY,-37.719,145.126
621,TRUE,3765,621,Fluoridated,Yarra Valley Water,MONTROSE,-37.81,145.343
622,FALSE,3221,622,Fluoridated,Barwon Water,MOOLAP,-38.183333,144.433333
623,TRUE,3039,623,Fluoridated,City West Water,MOONEE PONDS,-37.765,144.92
624,FALSE,3450,624,Fluoridated,Central Highlands Water,MOONLIGHT FLAT,-37.052382,143.684042
625,TRUE,3189,625,Fluoridated,South East Water,MOORABBIN,-37.941,145.058
626,TRUE,3194,626,Fluoridated,South East Water,MOORABBIN AIRPORT,-37.9786237,145.1017225
627,TRUE,3189,627,Fluoridated,South East Water,MOORABBIN EAST,-37.941,145.0595
628,FALSE,3221,628,Fluoridated,Barwon Water,MOORABOOL,-38.0697484,144.2954452
629,FALSE,3933,629,Fluoridated,South East Water,MOOROODUC,-38.247,145.105
630,TRUE,3138,630,Fluoridated,Yarra Valley Water,MOOROOLBARK,-37.785,145.315
631,FALSE,3629,631,Fluoridated,Goulburn Valley Water,MOOROOPNA,-36.383333,145.35
632,TRUE,3195,632,Fluoridated,South East Water,MORDIALLOC,-37.999,145.092
633,TRUE,3058,633,Fluoridated,Yarra Valley Water,MORELAND,-37.7240653,144.9501708
634,FALSE,3240,634,Fluoridated,Barwon Water,MORIAC,-38.233333,144.166667
635,FALSE,3931,635,Fluoridated,South East Water,MORNINGTON,-38.228,145.062
636,FALSE,3272,636,Not fluoridated,Wannon Water,MORTLAKE,-38.0755216,142.8100364
637,FALSE,3840,637,Fluoridated,Gippsland Water,MORWELL,-38.2275886,146.4146185
638,FALSE,3885,638,Not fluoridated,East Gippsland Water,MOSSIFACE,-37.7451219,147.8197188
639,FALSE,3723,639,Not fluoridated,Mount Buller and Mount Stirling ARMB,MOUNT BULLER,-37.1467949,146.4489704
640,FALSE,3350,640,Fluoridated,Central Highlands Water,MOUNT CLEAR,-37.602,143.868
641,TRUE,3767,641,Fluoridated,Yarra Valley Water,MOUNT DANDENONG,-37.831111,145.36
642,FALSE,3216,642,Fluoridated,Barwon Water,MOUNT DUNEED,-38.25,144.303611
643,FALSE,3352,643,Fluoridated,Central Highlands Water,MOUNT EGERTON,-37.616667,144.1
644,FALSE,3930,644,Fluoridated,South East Water,MOUNT ELIZA,-38.189,145.092
645,TRUE,3796,645,Fluoridated,Yarra Valley Water,MOUNT EVELYN,-37.783,145.385
646,FALSE,3350,646,Fluoridated,Central Highlands Water,MOUNT HELEN,-37.6297878,143.8834861
647,FALSE,3741,647,Not fluoridated,Mount Hotham ARMB,MOUNT HOTHAM,-36.9752778,147.1327778
648,FALSE,3441,648,Fluoridated,Western Water,MOUNT MACEDON,-37.4,144.583333
649,FALSE,3934,649,Fluoridated,South East Water,MOUNT MARTHA,-38.267,145.018
650,FALSE,3240,650,Fluoridated,Barwon Water,MOUNT MORIAC,-38.2201027,144.191706
651,FALSE,3350,651,Fluoridated,Central Highlands Water,MOUNT PLEASANT,-37.581,143.853
652,FALSE,3352,652,Fluoridated,Central Highlands Water,MOUNT ROWAN,-37.5029337,143.8400287
653,TRUE,3149,653,Fluoridated,Yarra Valley Water,MOUNT WAVERLEY,-37.877,145.131
654,FALSE,3732,654,Not fluoridated,North East Water,MOYHU,-36.5925448,146.4181008
655,FALSE,3699,655,Not fluoridated,North East Water,MT BEAUTY,-36.7358203,147.1768206
656,TRUE,3170,656,Fluoridated,South East Water,MULGRAVE,-37.929,145.174
657,TRUE,3170,657,Fluoridated,Yarra Valley Water,MULGRAVE,-37.927,145.174
658,FALSE,3610,658,Not fluoridated,Goulburn Valley Water,MURCHISON,-36.616667,145.216667
659,FALSE,3221,659,Fluoridated,Barwon Water,MURGHEBOLUC,-38.1048122,144.1290677
660,FALSE,3579,660,Not fluoridated,Lower Murray Water,MURRABIT,-35.5250292,143.9539977
661,FALSE,2734,661,Fluoridated,Lower Murray Water,"MURRAY DOWNS, NSW",-35.3850155,143.6479568
662,FALSE,3512,662,Not fluoridated,GWMWater,MURRAYVILLE,-35.262222,141.183333
663,TRUE,3163,663,Fluoridated,South East Water,MURRUMBEENA,-37.899,145.072
664,FALSE,3390,664,Not fluoridated,GWMWater,MURTOA,-36.6144503,142.4698649
665,FALSE,3556,665,Fluoridated,Coliban Water,MYERS FLAT,-36.7100539,144.1829124
666,FALSE,3341,666,Not fluoridated,Western Water,MYRNIONG,-37.616667,144.333333
667,FALSE,3737,667,Not fluoridated,North East Water,MYRTLEFORD,-36.5555446,146.7237861
668,FALSE,3608,668,Not fluoridated,Goulburn Valley Water,NAGAMBIE,-36.7802263,145.1528312
669,FALSE,3352,669,Fluoridated,Central Highlands Water,NAPOLEONS,-37.683333,143.833333
670,TRUE,3812,670,Fluoridated,South East Water,NAR NAR GOON,-38.081944,145.575
671,TRUE,3805,671,Fluoridated,South East Water,NARRE WARREN,-38.018,145.3
672,TRUE,3804,672,Fluoridated,South East Water,NARRE WARREN NORTH,-37.982,145.314
673,FALSE,3638,673,Not fluoridated,Goulburn Valley Water,NATHALIA,-36.058333,145.203611
674,FALSE,3384,674,Not fluoridated,Central Highlands Water,NAVARRE,-36.9436225,143.1151106
675,FALSE,3352,675,Fluoridated,Central Highlands Water,NAVIGATORS,-37.6172482,143.9269679
676,FALSE,3831,676,Not fluoridated,Gippsland Water,NEERIM SOUTH,-38.016667,145.966667
677,FALSE,3350,677,Fluoridated,Central Highlands Water,NERRINA,-37.533,143.903
678,FALSE,3438,678,Fluoridated,Western Water,NEW GISBORNE,-37.459,144.598
679,FALSE,3825,679,Fluoridated,Gippsland Water,NEWBOROUGH,-38.1760805,146.2985284
680,FALSE,3219,680,Fluoridated,Barwon Water,NEWCOMB,-38.17,144.396
681,FALSE,3925,681,Fluoridated,Westernport Water,NEWHAVEN,-38.5125,145.358333
682,FALSE,3350,682,Fluoridated,Central Highlands Water,NEWINGTON,-37.5655288,143.8264533
683,FALSE,3875,683,Fluoridated,East Gippsland Water,NEWLANDS ARM,-37.9277583,147.692083
684,FALSE,3364,684,Not fluoridated,Central Highlands Water,NEWLYN,-37.416944,143.983056
685,FALSE,3364,685,Not fluoridated,Central Highlands Water,NEWLYN NORTH,-37.3926739,144.0031194
686,FALSE,3886,686,Not fluoridated,East Gippsland Water,NEWMERELLA,-37.7514308,148.42875
687,TRUE,3015,687,Fluoridated,City West Water,NEWPORT,-37.842,144.884
688,FALSE,3462,688,Fluoridated,Coliban Water,NEWSTEAD,-37.105278,144.065
689,FALSE,3220,689,Fluoridated,Barwon Water,NEWTOWN,-38.15,144.333
690,FALSE,3501,690,Not fluoridated,Lower Murray Water,NICHOLS POINT,-34.2076592,142.2018502
691,FALSE,3882,691,Fluoridated,East Gippsland Water,NICHOLSON,-37.816667,147.733333
692,TRUE,3042,692,Fluoridated,City West Water,NIDDRIE,-37.745,144.886
693,FALSE,3821,693,Fluoridated,Gippsland Water,NILMA,-38.1704499,145.9720608
694,FALSE,3351,694,Fluoridated,Central Highlands Water,NINTINGBOOL,-37.6125783,143.7233581
695,TRUE,3174,695,Fluoridated,South East Water,NOBLE PARK,-37.967,145.176
696,TRUE,3174,696,Fluoridated,South East Water,NOBLE PARK NORTH,-37.942,145.19
697,FALSE,3833,697,Not fluoridated,Gippsland Water,NOOJEE,-37.883333,146
698,FALSE,3265,698,Not fluoridated,Wannon Water,NOORAT,-38.2006511,142.9364881
699,FALSE,3214,699,Fluoridated,Barwon Water,NORLANE,-38.092,144.356
700,FALSE,3550,700,Fluoridated,Coliban Water,NORTH BENDIGO,-36.7359634,144.2784231
701,FALSE,3215,701,Fluoridated,Barwon Water,NORTH GEELONG,-38.1093956,144.3521811
702,TRUE,3051,702,Fluoridated,City West Water,NORTH MELBOURNE,-37.799167,144.946667
703,FALSE,3214,703,Fluoridated,Barwon Water,NORTH SHORE,-38.099,144.373
704,TRUE,3113,704,Fluoridated,Yarra Valley Water,NORTH WARRANDYTE,-37.726,145.216
705,TRUE,3070,705,Fluoridated,Yarra Valley Water,NORTHCOTE,-37.7722,144.9994
706,TRUE,3168,706,Fluoridated,Yarra Valley Water,NOTTING HILL,-37.9048347,145.1458611
707,FALSE,3887,707,Fluoridated,East Gippsland Water,NOWA NOWA,-37.7343937,148.0867723
708,FALSE,3529,708,Not fluoridated,GWMWater,NULLAWIL,-35.8508477,143.1747947
709,FALSE,3636,709,Not fluoridated,Goulburn Valley Water,NUMURKAH,-36.0883415,145.442323
710,TRUE,3131,710,Fluoridated,Yarra Valley Water,NUNAWADING,-37.817,145.177
711,TRUE,3099,711,Fluoridated,Yarra Valley Water,NUTFIELD,-37.603,145.181
712,FALSE,3594,712,Fluoridated,Lower Murray Water,NYAH,-35.166667,143.383333
713,FALSE,3595,713,Fluoridated,Lower Murray Water,NYAH WEST,-35.1869703,143.3556015
714,FALSE,3987,714,Not fluoridated,South Gippsland Water,NYORA,-38.3329,145.6698
715,TRUE,3046,715,Fluoridated,Yarra Valley Water,OAK PARK,-37.718,144.919
716,TRUE,3063,716,Fluoridated,Yarra Valley Water,OAKLANDS JUNCTION,-37.6117964,144.8401227
717,TRUE,3166,717,Fluoridated,South East Water,OAKLEIGH,-37.9030702,145.0962067
718,TRUE,3166,718,Fluoridated,Yarra Valley Water,OAKLEIGH,-37.9010702,145.0962067
719,TRUE,3166,719,Fluoridated,Yarra Valley Water,OAKLEIGH EAST,-37.904859,145.1182718
720,TRUE,3167,720,Fluoridated,South East Water,OAKLEIGH SOUTH,-37.917,145.09
721,FALSE,3226,721,Fluoridated,Barwon Water,OCEAN GROVE,-38.25,144.516667
722,TRUE,3809,722,Fluoridated,South East Water,OFFICER,-38.058056,145.408889
723,TRUE,3788,723,Fluoridated,Yarra Valley Water,OLINDA,-37.85599,145.364357
724,FALSE,3241,724,Fluoridated,Barwon Water,OMBERSLEY,-38.2042916,143.8651496
725,FALSE,3898,725,Not fluoridated,East Gippsland Water,OMEO,-37.1,147.6
726,FALSE,3249,726,Fluoridated,Barwon Water,ONDIT,-38.2420011,143.6176937
727,FALSE,3888,727,Not fluoridated,East Gippsland Water,ORBOST,-37.7028259,148.4653469
728,TRUE,3204,728,Fluoridated,South East Water,ORMOND,-37.902081,145.0410692
729,FALSE,3490,729,Not fluoridated,GWMWater,OUYEN,-35.0674787,142.319913
730,FALSE,3678,730,Not fluoridated,North East Water,OXLEY,-36.4349409,146.3554145
731,TRUE,3810,731,Fluoridated,South East Water,PAKENHAM,-38.073568,145.4851308
732,TRUE,3810,732,Fluoridated,Yarra Valley Water,PAKENHAM,-38.070568,145.4871308
733,TRUE,3759,733,Fluoridated,Yarra Valley Water,PANTON HILL,-37.643,145.239
734,TRUE,3114,734,Fluoridated,Yarra Valley Water,PARK ORCHARDS,-37.778,145.214
735,TRUE,3195,735,Fluoridated,South East Water,PARKDALE,-37.991,145.08
736,TRUE,3052,736,Fluoridated,City West Water,PARKVILLE,-37.788,144.951
737,FALSE,3340,737,Fluoridated,Western Water,PARWAN,-37.716667,144.45
738,TRUE,3044,738,Fluoridated,Yarra Valley Water,PASCOE VALE,-37.727,144.942
739,TRUE,3044,739,Fluoridated,Yarra Valley Water,PASCOE VALE SOUTH,-37.7431,144.9377
740,TRUE,3197,740,Fluoridated,South East Water,PATTERSON LAKES,-38.0742262,145.1431018
741,FALSE,3880,741,Fluoridated,East Gippsland Water,PAYNESVILLE,-37.9112576,147.7123335
742,FALSE,3912,742,Fluoridated,South East Water,PEARCEDALE,-38.203,145.231
743,FALSE,3289,743,Not fluoridated,Wannon Water,PENSHURST,-37.883333,142.283333
744,FALSE,3270,744,Not fluoridated,Wannon Water,PETERBOROUGH,-38.581127,142.8618737
745,FALSE,3597,745,Not fluoridated,Lower Murray Water,PIANGIL,-35.0739274,143.3300801
746,FALSE,3639,746,Not fluoridated,Goulburn Valley Water,PICOLA,-36.0113631,145.1324102
747,FALSE,3984,747,Fluoridated,Westernport Water,PIONEER BAY,-38.3805015,145.5503685
748,FALSE,3360,748,Fluoridated,Central Highlands Water,PITTONG,-37.6760324,143.4476526
749,TRUE,3090,749,Fluoridated,Yarra Valley Water,PLENTY,-37.669,145.117
750,TRUE,3030,750,Fluoridated,City West Water,POINT COOK,-37.9178086,144.7477259
751,FALSE,3225,751,Fluoridated,Barwon Water,POINT LONSDALE,-38.283333,144.6
752,FALSE,3212,752,Fluoridated,Barwon Water,POINT WILSON,-38.0425432,144.5255221
753,FALSE,3381,753,Not fluoridated,GWMWater,POMONAL,-37.192222,142.608889
754,FALSE,3352,754,Not fluoridated,Central Highlands Water,POOTILLA,-37.526444,143.9595951
755,FALSE,3988,755,Not fluoridated,South Gippsland Water,POOWONG,-38.35,145.75
756,FALSE,3740,756,Not fluoridated,North East Water,POREPUNKAH,-36.694433,146.9264143
757,FALSE,3971,757,Not fluoridated,South Gippsland Water,PORT ALBERT,-38.665278,146.688333
758,FALSE,3269,758,Not fluoridated,Wannon Water,PORT CAMPBELL,-38.5920473,142.9995604
759,FALSE,3284,759,Natural fluoride,Wannon Water,PORT FAIRY,-38.3810122,142.2292907
760,FALSE,3964,760,Not fluoridated,South Gippsland Water,PORT FRANKLIN,-38.683333,146.283333
761,TRUE,3207,761,Fluoridated,South East Water,PORT MELBOURNE,-37.823889,144.911111
762,FALSE,3965,762,Not fluoridated,South Gippsland Water,PORT WELSHPOOL,-38.699722,146.464722
763,FALSE,3223,763,Fluoridated,Barwon Water,PORTARLINGTON,-38.116667,144.65
764,FALSE,3305,764,Natural fluoride,Wannon Water,PORTLAND,-38.360895,141.6041155
765,FALSE,3944,765,Fluoridated,South East Water,PORTSEA,-38.32,144.713
766,TRUE,3181,766,Fluoridated,South East Water,PRAHRAN,-37.852,144.998
767,TRUE,3072,767,Fluoridated,Yarra Valley Water,PRESTON,-37.743,145.008
768,FALSE,3278,768,Not fluoridated,Wannon Water,PURNIM,-38.2910882,142.5953418
769,FALSE,3521,769,Not fluoridated,Goulburn Valley Water,PYALONG,-37.116667,144.85
770,FALSE,3575,770,Not fluoridated,Coliban Water,PYRAMID HILL,-36.0556784,144.1341779
771,FALSE,3540,771,Not fluoridated,GWMWater,QUAMBATOOK,-35.849937,143.5233295
772,FALSE,3550,772,Fluoridated,Coliban Water,QUARRY HILL,-36.766667,144.283333
773,FALSE,3225,773,Fluoridated,Barwon Water,QUEENSCLIFF,-38.2677746,144.6286897
774,FALSE,3373,774,Not fluoridated,Central Highlands Water,RAGLAN,-37.3590952,143.3332684
775,FALSE,3424,775,Not fluoridated,GWMWater,RAINBOW,-35.900833,141.997222
776,FALSE,3825,776,Not fluoridated,Gippsland Water,RAWSON,-37.95,146.4
777,FALSE,3880,777,Fluoridated,East Gippsland Water,RAYMOND ISLAND,-37.916667,147.733333
778,FALSE,3570,778,Fluoridated,Coliban Water,RAYWOOD,-36.544166,144.1890489
779,FALSE,3496,779,Fluoridated,Lower Murray Water,RED CLIFFS,-34.3075,142.188056
780,FALSE,3350,780,Fluoridated,Central Highlands Water,REDAN,-37.577,143.844
781,FALSE,3478,781,Not fluoridated,Central Highlands Water,REDBANK,-36.9565463,143.3503162
782,TRUE,3095,782,Fluoridated,Yarra Valley Water,RESEARCH,-37.707,145.18
783,TRUE,3073,783,Fluoridated,Yarra Valley Water,RESERVOIR,-37.713056,145.011944
784,FALSE,3923,784,Fluoridated,Westernport Water,RHYLL,-38.463056,145.303889
785,TRUE,3121,785,Fluoridated,City West Water,RICHMOND,-37.823,144.998
786,FALSE,3431,786,Fluoridated,Western Water,RIDDELLS CREEK,-37.4437804,144.6832081
787,TRUE,3134,787,Fluoridated,Yarra Valley Water,RINGWOOD,-37.8114,145.2306
788,TRUE,3135,788,Fluoridated,Yarra Valley Water,RINGWOOD EAST,-37.818,145.252
789,TRUE,3134,789,Fluoridated,Yarra Valley Water,RINGWOOD NORTH,-37.799883,145.226877
790,FALSE,3215,790,Fluoridated,Barwon Water,RIPPLESIDE,-38.1235549,144.3562807
791,TRUE,3185,791,Fluoridated,South East Water,RIPPONLEA,-37.8784934,144.9956077
792,FALSE,3549,792,Fluoridated,Lower Murray Water,ROBINVALE,-34.5885119,142.777553
793,FALSE,3561,793,Not fluoridated,Coliban Water,ROCHESTER,-36.366667,144.7
794,TRUE,3335,794,Fluoridated,Western Water,ROCKBANK,-37.733333,144.666667
795,FALSE,3465,795,Fluoridated,Central Highlands Water,RODBOROUGH,-37.1048821,143.9012866
796,FALSE,3821,796,Fluoridated,Gippsland Water,ROKEBY,-38.066667,145.933333
797,FALSE,3330,797,Fluoridated,Central Highlands Water,ROKEWOOD,-37.9,143.716667
798,FALSE,3434,798,Partly fluoridated,Western Water,ROMSEY,-37.3506332,144.7428496
799,TRUE,3084,799,Fluoridated,Yarra Valley Water,ROSANNA,-37.737,145.069
800,FALSE,3939,800,Fluoridated,South East Water,ROSEBUD,-38.356,144.918
801,FALSE,3940,801,Fluoridated,South East Water,ROSEBUD WEST,-38.377,144.872
802,FALSE,3847,802,Not fluoridated,Gippsland Water,ROSEDALE,-38.15,146.783
803,FALSE,3351,803,Fluoridated,Central Highlands Water,ROSS CREEK,-37.649799,143.7694626
804,FALSE,3340,804,Fluoridated,Central Highlands Water,ROWSLEY,-37.7216385,144.376119
805,TRUE,3178,805,Fluoridated,South East Water,ROWVILLE,-37.937,145.229
806,TRUE,3064,806,Fluoridated,Yarra Valley Water,ROXBURGH PARK,-37.627,144.929
807,FALSE,3388,807,Not fluoridated,GWMWater,RUPANYUP,-36.5943582,142.6500022
808,FALSE,3612,808,Not fluoridated,Goulburn Valley Water,RUSHWORTH,-36.6265235,145.0672551
809,FALSE,3331,809,Fluoridated,Barwon Water,RUSSELLS BRIDGE,-38.024133,144.1909483
810,FALSE,3685,810,Not fluoridated,North East Water,RUTHERGLEN,-36.055556,146.4625
811,FALSE,3941,811,Fluoridated,South East Water,RYE,-38.377,144.838
812,FALSE,3936,812,Fluoridated,South East Water,SAFETY BEACH,-38.322,144.986
813,TRUE,3088,813,Fluoridated,Yarra Valley Water,SAINT HELENA,-37.686,145.137
814,FALSE,3850,814,Fluoridated,Gippsland Water,SALE,-38.1026004,147.073027
815,FALSE,3925,815,Fluoridated,Westernport Water,SAN REMO,-38.5254247,145.3768484
816,FALSE,3312,816,Not fluoridated,Wannon Water,SANDFORD,-37.5986077,141.4775662
817,TRUE,3977,817,Fluoridated,South East Water,SANDHURST,-38.081,145.207
818,TRUE,3191,818,Fluoridated,South East Water,SANDRINGHAM,-37.9525,145.012311
819,FALSE,3875,819,Fluoridated,East Gippsland Water,SARSFIELD,-37.7438718,147.7686461
820,TRUE,3787,820,Fluoridated,Yarra Valley Water,SASSAFRAS,-37.87,145.353889
821,FALSE,3351,821,Fluoridated,Central Highlands Water,SCARSDALE,-37.678333,143.676111
822,TRUE,3179,822,Fluoridated,South East Water,SCORESBY,-37.894,145.234
823,FALSE,3533,823,Not fluoridated,GWMWater,SEA LAKE,-35.5055413,142.8526896
824,TRUE,3028,824,Fluoridated,City West Water,SEABROOK,-37.876,144.758
825,FALSE,3198,825,Fluoridated,South East Water,SEAFORD,-38.105,145.132
826,TRUE,3018,826,Fluoridated,City West Water,SEAHOLME,-37.868,144.841
827,FALSE,3851,827,Not fluoridated,Gippsland Water,SEASPRAY,-38.2936345,147.1467693
828,FALSE,3556,828,Fluoridated,Coliban Water,SEBASTIAN,-36.5937109,144.2077977
829,FALSE,3356,829,Fluoridated,Central Highlands Water,SEBASTOPOL,-37.585278,143.839444
830,TRUE,3011,830,Fluoridated,City West Water,SEDDON,-37.8055831,144.891002
831,TRUE,3159,831,Fluoridated,South East Water,SELBY,-37.914,145.369
832,FALSE,3517,832,Not fluoridated,Coliban Water,SERPENTINE,-36.4113541,143.9793141
833,TRUE,3139,833,Fluoridated,Yarra Valley Water,SEVILLE,-37.777,145.461
834,TRUE,3139,834,Fluoridated,Yarra Valley Water,SEVILLE EAST,-37.774,145.491
835,FALSE,3660,835,Fluoridated,Goulburn Valley Water,SEYMOUR,-37.0160797,145.1619887
836,FALSE,3331,836,Fluoridated,Barwon Water,SHE OAKS,-37.916667,144.133333
837,FALSE,3329,837,Fluoridated,Barwon Water,SHELFORD,-38.016667,143.966667
838,FALSE,3630,838,Fluoridated,Goulburn Valley Water,SHEPPARTON,-36.383333,145.4
839,TRUE,3789,839,Fluoridated,Yarra Valley Water,SHERBROOKE,-37.885,145.36
840,FALSE,3916,840,Fluoridated,South East Water,SHOREHAM,-38.427,145.05
841,TRUE,3795,841,Partly fluoridated,Yarra Valley Water,SILVAN,-37.824,145.421
842,FALSE,3922,842,Fluoridated,Westernport Water,SILVERLEAVES,-38.453056,145.264722
843,FALSE,3266,843,Not fluoridated,Wannon Water,SIMPSON,-38.4987977,143.2429647
844,FALSE,3465,844,Fluoridated,Central Highlands Water,SIMSON,-36.9948936,143.7748884
845,FALSE,3233,845,Not fluoridated,Barwon Water,SKENES CREEK,-38.7101801,143.7098032
846,FALSE,3361,846,Fluoridated,Central Highlands Water,SKIPTON,-37.6847168,143.3643289
847,TRUE,3977,847,Fluoridated,South East Water,SKYE,-38.119,145.2
848,FALSE,3364,848,Not fluoridated,Central Highlands Water,SMEATON,-37.333333,143.95
849,FALSE,3922,849,Fluoridated,Westernport Water,SMITHS BEACH,-38.5006654,145.2563077
850,TRUE,3760,850,Fluoridated,Yarra Valley Water,SMITHS GULLY,-37.619,145.256
851,FALSE,3351,851,Fluoridated,Central Highlands Water,SMYTHES CREEK,-37.5941229,143.7694626
852,FALSE,3351,852,Fluoridated,Central Highlands Water,SMYTHESDALE,-37.6333464,143.6887979
853,FALSE,3351,853,Fluoridated,Central Highlands Water,SNAKE VALLEY,-37.611944,143.584444
854,FALSE,3350,854,Fluoridated,Central Highlands Water,SOLDIERS HILL,-37.55,143.858
855,FALSE,3927,855,Fluoridated,South East Water,SOMERS,-38.393,145.163
856,TRUE,3062,856,Fluoridated,Yarra Valley Water,SOMERTON,-37.633,144.95
857,FALSE,3912,857,Fluoridated,South East Water,SOMERVILLE,-38.226,145.177
858,FALSE,3943,858,Fluoridated,South East Water,SORRENTO,-38.338889,144.740833
859,FALSE,3220,859,Fluoridated,Barwon Water,SOUTH GEELONG,-38.1673819,144.3658474
860,TRUE,3015,860,Fluoridated,City West Water,SOUTH KINGSVILLE,-37.8300643,144.8703715
861,TRUE,3205,861,Fluoridated,South East Water,SOUTH MELBOURNE,-37.835,144.96
862,TRUE,3752,862,Fluoridated,Yarra Valley Water,SOUTH MORANG,-37.633333,145.083333
863,TRUE,3141,863,Fluoridated,South East Water,SOUTH YARRA,-37.84,144.989
864,TRUE,3006,864,Fluoridated,South East Water,SOUTHBANK,-37.829,144.957
865,TRUE,3015,865,Fluoridated,City West Water,SPOTSWOOD,-37.831,144.887
866,FALSE,3550,866,Fluoridated,Coliban Water,SPRING GULLY,-36.7976791,144.2866151
867,FALSE,3444,867,Not fluoridated,Central Highlands Water,SPRING HILL,-37.296477,144.3576473
868,FALSE,3352,868,Not fluoridated,Central Highlands Water,SPRINGBANK,-37.5235787,144.0575587
869,FALSE,3682,869,Fluoridated,North East Water,SPRINGHURST,-36.183333,146.466667
870,FALSE,3364,870,Not fluoridated,Central Highlands Water,SPRINGMOUNT,-37.4130869,143.9351234
871,TRUE,3171,871,Fluoridated,South East Water,SPRINGVALE,-37.947,145.153
872,TRUE,3172,872,Fluoridated,South East Water,SPRINGVALE SOUTH,-37.977,145.157
873,TRUE,3021,873,Fluoridated,City West Water,ST ALBANS,-37.736111,144.803889
874,FALSE,3219,874,Fluoridated,Barwon Water,ST ALBANS PARK,-38.1954052,144.393187
875,FALSE,3478,875,Not fluoridated,GWMWater,ST ARNAUD,-36.616618,143.2603641
876,FALSE,3727,876,Fluoridated,North East Water,ST JAMES,-36.2799892,145.8920165
877,TRUE,3182,877,Fluoridated,South East Water,ST KILDA,-37.864,144.982
878,TRUE,3183,878,Fluoridated,South East Water,ST KILDA EAST,-37.862,144.997
879,TRUE,3182,879,Fluoridated,South East Water,ST KILDA WEST,-37.8604,144.9732
880,FALSE,3223,880,Fluoridated,Barwon Water,ST LEONARDS,-38.166667,144.716667
881,FALSE,3623,881,Not fluoridated,Goulburn Valley Water,STANHOPE,-36.4388545,144.9883506
882,FALSE,3221,882,Fluoridated,Barwon Water,STAUGHTON VALE,-37.8396872,144.2818364
883,FALSE,3380,883,Not fluoridated,GWMWater,STAWELL,-37.0575657,142.7753712
884,TRUE,3775,884,Not fluoridated,Yarra Valley Water,STEELS CREEK,-37.594,145.374
885,FALSE,3331,885,Fluoridated,Barwon Water,STEIGLITZ,-37.894512,144.1861997
886,FALSE,3221,886,Fluoridated,Barwon Water,STONEHAVEN,-38.1288448,144.2504403
887,FALSE,3862,887,Fluoridated,Gippsland Water,STRATFORD,-37.966667,147.083333
888,FALSE,3551,888,Fluoridated,Coliban Water,STRATHFIELDSAYE,-36.8,144.366667
889,FALSE,3641,889,Not fluoridated,Goulburn Valley Water,STRATHMERTON,-35.9401904,145.4762409
890,TRUE,3041,890,Fluoridated,City West Water,STRATHMORE,-37.734,144.921
891,TRUE,3041,891,Fluoridated,City West Water,STRATHMORE HEIGHTS,-37.713,144.897
892,TRUE,3429,892,Fluoridated,Western Water,SUNBURY,-37.581111,144.713889
893,FALSE,3922,893,Fluoridated,Westernport Water,SUNDERLAND BAY,-38.5016289,145.272887
894,FALSE,3922,894,Fluoridated,Westernport Water,SUNSET STRIP,-38.4958178,145.2659786
895,TRUE,3020,895,Fluoridated,City West Water,SUNSHINE,-37.781,144.832
896,FALSE,3922,896,Fluoridated,Westernport Water,SURF BEACH,-38.5090925,145.2949976
897,TRUE,3127,897,Fluoridated,Yarra Valley Water,SURREY HILLS,-37.83,145.106
898,FALSE,3331,898,Fluoridated,Barwon Water,SUTHERLANDS CREEK,-38.0330078,144.2187155
899,FALSE,3225,899,Fluoridated,Barwon Water,SWAN BAY,-38.225833,144.643889
900,FALSE,3585,900,Fluoridated,Lower Murray Water,SWAN HILL,-35.3396318,143.5524803
901,FALSE,3903,901,Fluoridated,East Gippsland Water,SWAN REACH,-37.7911465,147.8712905
902,FALSE,3896,902,Not fluoridated,East Gippsland Water,SWIFTS CREEK,-37.250278,147.712222
903,TRUE,3037,903,Fluoridated,City West Water,SYDENHAM,-37.702,144.767
904,TRUE,3149,904,Fluoridated,Yarra Valley Water,SYNDAL,-37.8762868,145.1498177
905,FALSE,3371,905,Fluoridated,Central Highlands Water,TALBOT,-37.166667,143.7
906,FALSE,3700,906,Not fluoridated,North East Water,TALLANGATTA,-36.2194035,147.1933136
907,FALSE,3659,907,Fluoridated,Goulburn Valley Water,TALLAROOK,-37.1144599,145.0893126
908,FALSE,3634,908,Fluoridated,Goulburn Valley Water,TALLYGAROOPNA,-36.2456008,145.4240988
909,FALSE,3885,909,Not fluoridated,East Gippsland Water,TAMBO UPPER,-37.7718005,147.8116993
910,FALSE,3691,910,Fluoridated,North East Water,TANGAMBALANGA,-36.233333,147.033333
911,FALSE,3447,911,Fluoridated,Coliban Water,TARADALE,-37.133333,144.35
912,FALSE,3551,912,Not fluoridated,Coliban Water,TARNAGULLA,-36.7670418,143.8274714
913,FALSE,3301,913,Fluoridated,Wannon Water,TARRINGTON,-37.766667,142.1
914,FALSE,3616,914,Not fluoridated,Goulburn Valley Water,TATURA,-36.4366557,145.2328259
915,FALSE,3697,915,Not fluoridated,North East Water,TAWONGA,-36.6941469,147.1485394
916,FALSE,3698,916,Not fluoridated,North East Water,TAWONGA SOUTH,-36.7304657,147.152596
917,TRUE,3038,917,Fluoridated,City West Water,TAYLORS LAKES,-37.701,144.796
918,TRUE,3160,918,Fluoridated,South East Water,TECOMA,-37.906,145.344
919,FALSE,3328,919,Fluoridated,Barwon Water,TEESDALE,-38.033333,144.05
920,TRUE,3106,920,Fluoridated,Yarra Valley Water,TEMPLESTOWE,-37.753,145.135
921,TRUE,3107,921,Fluoridated,Yarra Valley Water,TEMPLESTOWE LOWER,-37.765,145.114
922,FALSE,3984,922,Fluoridated,Westernport Water,TENBY POINT,-38.4146878,145.473471
923,FALSE,3264,923,Not fluoridated,Wannon Water,TERANG,-38.2380769,142.908047
924,TRUE,3154,924,Fluoridated,South East Water,THE BASIN,-37.86,145.314
925,TRUE,3792,925,Partly fluoridated,Yarra Valley Water,THE PATCH,-37.8887708,145.3973329
926,TRUE,3074,926,Fluoridated,Yarra Valley Water,THOMASTOWN,-37.682,145.014
927,FALSE,3219,927,Fluoridated,Barwon Water,THOMSON,-38.17,144.381
928,TRUE,3071,928,Fluoridated,Yarra Valley Water,THORNBURY,-37.76,145.007
929,FALSE,3712,929,Not fluoridated,Goulburn Valley Water,THORNTON,-37.2605102,145.8349846
930,FALSE,3835,930,Fluoridated,Gippsland Water,THORPDALE,-38.283333,146.166667
931,FALSE,3268,931,Not fluoridated,Wannon Water,TIMBOON,-38.478525,142.9734629
932,FALSE,3465,932,Fluoridated,Central Highlands Water,TIMOR,-36.984167,143.709167
933,FALSE,3465,933,Fluoridated,Central Highlands Water,TIMOR WEST,-36.9642713,143.6698303
934,FALSE,3621,934,Fluoridated,Goulburn Valley Water,TONGALA,-36.2455668,144.9577866
935,FALSE,3522,935,Not fluoridated,Coliban Water,TOOBORAC,-37.0884579,144.7554106
936,FALSE,3614,936,Fluoridated,Goulburn Valley Water,TOOLAMBA,-36.4999437,145.3357789
937,TRUE,3337,937,Fluoridated,Western Water,TOOLERN VALE,-37.608056,144.593056
938,FALSE,3856,938,Not fluoridated,Gippsland Water,TOONGABBIE,-38.05,146.616667
939,FALSE,3962,939,Not fluoridated,South Gippsland Water,TOORA,-38.6597789,146.3041191
940,TRUE,3980,940,Fluoridated,South East Water,TOORADIN,-38.211111,145.38
941,TRUE,3142,941,Fluoridated,Yarra Valley Water,TOORAK,-37.841,145.018
942,FALSE,3909,942,Fluoridated,East Gippsland Water,TOORLOO,-37.7894568,148.0505559
943,FALSE,3941,943,Fluoridated,South East Water,TOOTGAROOK,-38.374,144.849
944,FALSE,3228,944,Fluoridated,Barwon Water,TORQUAY,-38.333333,144.316667
945,TRUE,3012,945,Fluoridated,City West Water,TOTTENHAM,-37.806,144.857
946,FALSE,3824,946,Fluoridated,Gippsland Water,TRAFALGAR,-38.2,146.15
947,FALSE,3844,947,Fluoridated,Gippsland Water,TRARALGON,-38.2033531,146.519786
948,FALSE,3844,948,Fluoridated,Gippsland Water,TRARALGON SOUTH,-38.2986311,146.5368986
949,TRUE,3032,949,Fluoridated,City West Water,TRAVANCORE,-37.778,144.935
950,FALSE,3660,950,Fluoridated,Goulburn Valley Water,TRAWOOL,-37.1089414,145.215564
951,TRUE,3785,951,Fluoridated,Yarra Valley Water,TREMONT,-37.88,145.324
952,FALSE,3458,952,Not fluoridated,Coliban Water,TRENTHAM,-37.383333,144.316667
953,TRUE,3043,953,Fluoridated,City West Water,TULLAMARINE,-37.701,144.876
954,TRUE,3043,954,Fluoridated,Yarra Valley Water,TULLAMARINE,-37.701,144.876
955,FALSE,3728,955,Fluoridated,North East Water,TUNGAMAH,-36.1575347,145.8697558
956,FALSE,3913,956,Fluoridated,South East Water,TYABB,-38.259,145.189
957,FALSE,3844,957,Not fluoridated,Gippsland Water,TYERS,-38.15,146.466667
958,FALSE,3444,958,Fluoridated,Coliban Water,TYLDEN,-37.3194005,144.4052024
959,TRUE,3813,959,Fluoridated,South East Water,TYNONG,-38.083333,145.616667
960,FALSE,3544,960,Not fluoridated,GWMWater,ULTIMA,-35.4743019,143.2608146
961,TRUE,3156,961,Fluoridated,South East Water,UPPER FERNTREE GULLY,-37.895,145.31
962,TRUE,3158,962,Fluoridated,South East Water,UPWEY,-37.904,145.33
963,TRUE,3158,963,Fluoridated,Yarra Valley Water,UPWEY,-37.902,145.33
964,FALSE,3922,964,Fluoridated,Westernport Water,VENTNOR,-38.4834062,145.1727694
965,TRUE,3133,965,Fluoridated,Yarra Valley Water,VERMONT,-37.838,145.198
966,TRUE,3133,966,Fluoridated,Yarra Valley Water,VERMONT SOUTH,-37.851,145.183
967,TRUE,3084,967,Fluoridated,Yarra Valley Water,VIEWBANK,-37.731,145.1
968,FALSE,3669,968,Not fluoridated,Goulburn Valley Water,VIOLET TOWN,-36.6372041,145.7141065
969,FALSE,3687,969,Not fluoridated,North East Water,WAHGUNYAH,-36.0126173,146.4001308
970,FALSE,3352,970,Fluoridated,Central Highlands Water,WALLACE,-37.5608219,144.0575587
971,FALSE,3756,971,Fluoridated,Yarra Valley Water,WALLAN,-37.4081337,144.9638997
972,FALSE,3221,972,Fluoridated,Barwon Water,WALLINGTON,-38.2247017,144.510853
973,FALSE,3875,973,Not fluoridated,East Gippsland Water,WALPA,-37.7939691,147.3892119
974,FALSE,3507,974,Not fluoridated,GWMWater,WALPEUP,-35.136111,142.025
975,FALSE,3709,975,Not fluoridated,North East Water,WALWA,-35.9642807,147.6814535
976,FALSE,3216,976,Fluoridated,Barwon Water,WANDANA HEIGHTS,-38.1768917,144.3002702
977,FALSE,3744,977,Not fluoridated,North East Water,WANDILIGONG,-36.761389,146.984167
978,TRUE,3139,978,Partly fluoridated,Yarra Valley Water,WANDIN NORTH,-37.769,145.411
979,FALSE,3758,979,Fluoridated,Goulburn Valley Water,WANDONG,-37.336023,145.0399797
980,FALSE,3758,980,Fluoridated,Goulburn Valley Water,WANDONG WEST,-37.336023,145.0399797
981,FALSE,3677,981,Fluoridated,North East Water,WANGARATTA,-36.3682777,146.3172149
982,TRUE,3152,982,Fluoridated,South East Water,WANTIRNA,-37.844,145.229
983,TRUE,3152,983,Fluoridated,South East Water,WANTIRNA SOUTH,-37.881,145.224
984,FALSE,3799,984,Not fluoridated,Yarra Valley Water,WARBURTON,-37.7525378,145.6948397
985,FALSE,3393,985,Not fluoridated,GWMWater,WARRACKNABEAL,-36.252755,142.3919552
986,FALSE,3820,986,Fluoridated,Gippsland Water,WARRAGUL,-38.1537515,145.9297824
987,FALSE,3821,987,Fluoridated,Gippsland Water,WARRAGUL SOUTH,-38.2181003,145.9247217
988,TRUE,3113,988,Fluoridated,Yarra Valley Water,WARRANDYTE,-37.738,145.223
989,TRUE,3134,989,Fluoridated,Yarra Valley Water,WARRANDYTE SOUTH,-37.7605268,145.2452567
990,TRUE,3134,990,Fluoridated,Yarra Valley Water,WARRANWOOD,-37.777,145.249
991,FALSE,3352,991,Fluoridated,Central Highlands Water,WARRENHEIP,-37.575,143.923
992,FALSE,3249,992,Fluoridated,Barwon Water,WARRION,-38.216667,143.566667
993,FALSE,3280,993,Fluoridated,Wannon Water,WARRNAMBOOL,-38.3686779,142.4982086
994,FALSE,3482,994,Not fluoridated,GWMWater,WATCHEM,-36.1545324,142.8617484
995,TRUE,3195,995,Fluoridated,South East Water,WATERWAYS,-38.0147634,145.1305169
996,FALSE,3087,996,Fluoridated,Yarra Valley Water,WATSONIA,-37.708,145.083
997,TRUE,3096,997,Fluoridated,Yarra Valley Water,WATTLE GLEN,-37.663,145.183
998,FALSE,3352,998,Not fluoridated,Central Highlands Water,WAUBRA,-37.3629556,143.6400336
999,FALSE,3216,999,Fluoridated,Barwon Water,WAURN PONDS,-38.208813,144.2709146
1000,FALSE,3518,1000,Not fluoridated,Coliban Water,WEDDERBURN,-36.416667,143.616667
1001,FALSE,3966,1001,Not fluoridated,South Gippsland Water,WELSHPOOL,-38.666667,146.433333
1002,FALSE,3355,1002,Fluoridated,Central Highlands Water,WENDOUREE,-37.532,143.823
1003,FALSE,3241,1003,Fluoridated,Barwon Water,WENSLEYDALE,-38.3405232,144.0419036
1004,FALSE,3352,1004,Not fluoridated,Central Highlands Water,WERNETH,-37.9291695,143.6241243
1005,TRUE,3030,1005,Fluoridated,City West Water,WERRIBEE,-37.9,144.664
1006,FALSE,3799,1006,Not fluoridated,Yarra Valley Water,WESBURN,-37.767,145.647
1007,TRUE,3012,1007,Fluoridated,City West Water,WEST FOOTSCRAY,-37.8020576,144.8703715
1008,TRUE,3003,1008,Fluoridated,City West Water,WEST MELBOURNE,-37.808,144.927
1009,TRUE,3049,1009,Fluoridated,Yarra Valley Water,WESTMEADOWS,-37.678,144.893
1010,TRUE,3150,1010,Fluoridated,Yarra Valley Water,WHEELERS HILL,-37.899,145.183
1011,FALSE,3550,1011,Fluoridated,Coliban Water,WHITE HILLS,-36.733333,144.3
1012,FALSE,3733,1012,Not fluoridated,North East Water,WHITFIELD,-36.7563131,146.4167014
1013,FALSE,3219,1013,Fluoridated,Barwon Water,WHITTINGTON,-38.18,144.39
1014,TRUE,3757,1014,Fluoridated,Yarra Valley Water,WHITTLESEA,-37.513889,145.113889
1015,TRUE,3016,1015,Fluoridated,City West Water,WILLIAMSTOWN,-37.861,144.885
1016,FALSE,3825,1016,Not fluoridated,Gippsland Water,WILLOW GROVE,-38.0690534,146.1623601
1017,FALSE,3922,1017,Fluoridated,Westernport Water,WIMBLEDON HEIGHTS,-38.4799767,145.2328259
1019,FALSE,3352,1019,Fluoridated,Central Highlands Water,WINDERMERE,-37.5137333,143.720308
1020,TRUE,3181,1020,Fluoridated,South East Water,WINDSOR,-37.854,144.988
1021,FALSE,3885,1021,Not fluoridated,East Gippsland Water,WISELEIGH,-37.7125989,147.7913421
1022,FALSE,3690,1022,Fluoridated,North East Water,WODONGA,-36.1240938,146.8817639
1023,TRUE,3750,1023,Fluoridated,Yarra Valley Water,WOLLERT,-37.597,145.033
1024,TRUE,3115,1024,Fluoridated,Yarra Valley Water,WONGA PARK,-37.7355557,145.2696895
1025,FALSE,3995,1025,Fluoridated,South Gippsland Water,WONTHAGGI,-38.6089501,145.5911028
1026,FALSE,3442,1026,Partly fluoridated,Western Water,WOODEND,-37.3613204,144.5244238
1027,FALSE,3350,1027,Fluoridated,Central Highlands Water,WOODMANS HILL,-37.55642,143.907289
1028,TRUE,3751,1028,Fluoridated,Yarra Valley Water,WOODSTOCK,-37.544,145.056
1029,FALSE,3995,1029,Fluoridated,Westernport Water,WOOLAMAI,-38.5133112,145.4921696
1030,FALSE,3995,1030,Fluoridated,Westernport Water,WOOLAMAI WATERS,-38.5026577,145.4814309
1031,FALSE,3485,1031,Not fluoridated,GWMWater,WOOMELANG,-35.683333,142.666667
1032,TRUE,3139,1032,Partly fluoridated,Yarra Valley Water,WOORI YALLOCK,-37.778,145.528
1033,FALSE,3588,1033,Fluoridated,Lower Murray Water,WOORINEN SOUTH,-35.2943524,143.4771357
1034,FALSE,3635,1034,Not fluoridated,Goulburn Valley Water,WUNGHNU,-36.1576304,145.4243197
1035,FALSE,3241,1035,Fluoridated,Barwon Water,WURDIBOLUC,-38.289167,144.051389
1036,FALSE,3850,1036,Fluoridated,Gippsland Water,WURRUK,-38.1077891,147.0280652
1037,FALSE,3875,1037,Fluoridated,East Gippsland Water,WY YUNG,-37.8035174,147.6191276
1038,FALSE,3527,1038,Not fluoridated,GWMWater,WYCHEPROOF,-36.077645,143.2271185
1039,TRUE,3024,1039,Fluoridated,City West Water,WYNDHAM VALE,-37.89,144.63
1040,FALSE,3749,1040,Not fluoridated,North East Water,YACKANDANDAH,-36.313056,146.839167
1041,TRUE,3085,1041,Fluoridated,Yarra Valley Water,YALLAMBIE,-37.726,145.104
1042,FALSE,3825,1042,Fluoridated,Gippsland Water,YALLOURN NORTH,-38.1596163,146.3612622
1043,TRUE,3755,1043,Fluoridated,Yarra Valley Water,YAN YEAN,-37.571,145.108
1044,TRUE,3775,1044,Not fluoridated,Yarra Valley Water,YARRA GLEN,-37.648889,145.371944
1045,TRUE,3797,1045,Not fluoridated,Yarra Valley Water,YARRA JUNCTION,-37.779,145.606
1046,FALSE,3823,1046,Fluoridated,Gippsland Water,YARRAGON,-38.2,146.066667
1047,FALSE,3971,1047,Not fluoridated,South Gippsland Water,YARRAM,-38.565594,146.6751045
1048,TRUE,3091,1048,Fluoridated,Yarra Valley Water,YARRAMBAT,-37.64,145.133
1049,TRUE,3013,1049,Fluoridated,City West Water,YARRAVILLE,-37.817,144.89
1050,TRUE,3013,1050,Fluoridated,City West Water,YARRAVILLE WEST,-37.815066,144.88526
1051,FALSE,3730,1051,Fluoridated,North East Water,YARRAWONGA,-36.0271135,145.9990577
1052,FALSE,3644,1052,Not fluoridated,Goulburn Valley Water,YARROWEYAH,-35.933333,145.55
1053,FALSE,3717,1053,Not fluoridated,Goulburn Valley Water,YEA,-37.2229373,145.4070195
1054,TRUE,3139,1054,Partly fluoridated,Yarra Valley Water,YELLINGBO,-37.81,145.51
1055,FALSE,3352,1055,Fluoridated,Central Highlands Water,YENDON,-37.6445852,143.9650343
1056,TRUE,3770,1056,Fluoridated,Yarra Valley Water,YERING,-37.7002209,145.3582514
1057,FALSE,3869,1057,Fluoridated,Gippsland Water,YINNAR,-38.316667,146.316667
1058,TRUE,3063,1058,Fluoridated,Yarra Valley Water,YUROKE,-37.6,144.88
1059,FALSE,3418,1059,Not fluoridated,GWMWater,NHILL,-36.35163555,141.6411076